{"type":"FeatureCollection","features":[{"type":"Feature","properties":{"status":"existing","bHeight":12.0,"name":"","levels":""},"geometry":{"type":"Polygon","coordinates":[[[55.3063998,25.2872683],[55.306061,25.2870754],[55.3057097,25.28758],[55.3060485,25.2877729],[55.3063998,25.2872683]]]}},{"type":"Feature","properties":{"status":"existing","bHeight":12.0,"name":"","levels":""},"geometry":{"type":"Polygon","coordinates":[[[55.3059215,25.2870781],[55.3055813,25.2868867],[55.3052329,25.2873931],[55.3055731,25.2875844],[55.3059215,25.2870781]]]}},{"type":"Feature","properties":{"status":"existing","bHeight":12.0,"name":"","levels":""},"geometry":{"type":"Polygon","coordinates":[[[55.3051013,25.2865341],[55.3047602,25.2863392],[55.304399,25.2868563],[55.3047401,25.2870511],[55.3051013,25.2865341]]]}},{"type":"Feature","properties":{"status":"existing","bHeight":12.0,"name":"","levels":""},"geometry":{"type":"Polygon","coordinates":[[[55.304689,25.2862865],[55.3043482,25.2860919],[55.3039982,25.2865928],[55.304339,25.2867875],[55.304689,25.2862865]]]}},{"type":"Feature","properties":{"status":"existing","bHeight":12.0,"name":"","levels":""},"geometry":{"type":"Polygon","coordinates":[[[55.304205,25.2860996],[55.3038638,25.2859088],[55.3035189,25.2864131],[55.3038601,25.2866039],[55.304205,25.2860996]]]}},{"type":"Feature","properties":{"status":"existing","bHeight":12.0,"name":"","levels":""},"geometry":{"type":"Polygon","coordinates":[[[55.3054162,25.2869616],[55.3050762,25.286768],[55.3048167,25.2871405],[55.3051568,25.2873341],[55.3054162,25.2869616]]]}},{"type":"Feature","properties":{"status":"existing","bHeight":12.0,"name":"","levels":""},"geometry":{"type":"Polygon","coordinates":[[[55.305728,25.2865048],[55.3053936,25.2863082],[55.3051229,25.2866845],[55.3054573,25.2868812],[55.305728,25.2865048]]]}},{"type":"Feature","properties":{"status":"existing","bHeight":12.0,"name":"","levels":""},"geometry":{"type":"Polygon","coordinates":[[[55.3048337,25.2856961],[55.3045689,25.2860697],[55.304312,25.2859208],[55.3045768,25.2855472],[55.3048337,25.2856961]]]}},{"type":"Feature","properties":{"status":"existing","bHeight":12.0,"name":"","levels":""},"geometry":{"type":"Polygon","coordinates":[[[55.3052582,25.285858],[55.3050039,25.2862268],[55.3047443,25.2860805],[55.3049986,25.2857117],[55.3052582,25.285858]]]}},{"type":"Feature","properties":{"status":"existing","bHeight":12.0,"name":"","levels":""},"geometry":{"type":"Polygon","coordinates":[[[55.3051532,25.2852429],[55.3048872,25.2856196],[55.3046236,25.2854675],[55.3048896,25.2850908],[55.3051532,25.2852429]]]}},{"type":"Feature","properties":{"status":"existing","bHeight":12.0,"name":"","levels":""},"geometry":{"type":"Polygon","coordinates":[[[55.3056142,25.2853457],[55.3053609,25.2857188],[55.3051013,25.2855746],[55.3053547,25.2852016],[55.3056142,25.2853457]]]}},{"type":"Feature","properties":{"status":"existing","bHeight":12.0,"name":"","levels":""},"geometry":{"type":"Polygon","coordinates":[[[55.3046481,25.2851671],[55.304394,25.285545],[55.3041364,25.2854034],[55.3043905,25.2850255],[55.3046481,25.2851671]]]}},{"type":"Feature","properties":{"status":"existing","bHeight":12.0,"name":"","levels":""},"geometry":{"type":"Polygon","coordinates":[[[55.3058216,25.2858182],[55.3055625,25.2862045],[55.3052969,25.2860589],[55.3055559,25.2856726],[55.3058216,25.2858182]]]}},{"type":"Feature","properties":{"status":"existing","bHeight":12.0,"name":"","levels":""},"geometry":{"type":"Polygon","coordinates":[[[55.3061954,25.2860396],[55.3059367,25.2864151],[55.3056918,25.2862771],[55.3059506,25.2859016],[55.3061954,25.2860396]]]}},{"type":"Feature","properties":{"status":"existing","bHeight":12.0,"name":"","levels":""},"geometry":{"type":"Polygon","coordinates":[[[55.3068904,25.2866065],[55.3066326,25.2869838],[55.3063727,25.2868386],[55.3066306,25.2864613],[55.3068904,25.2866065]]]}},{"type":"Feature","properties":{"status":"existing","bHeight":12.0,"name":"","levels":""},"geometry":{"type":"Polygon","coordinates":[[[55.3066016,25.2862599],[55.3062507,25.2867759],[55.3059802,25.2866255],[55.306331,25.2861095],[55.3066016,25.2862599]]]}},{"type":"Feature","properties":{"status":"existing","bHeight":12.0,"name":"","levels":""},"geometry":{"type":"Polygon","coordinates":[[[55.3071369,25.2862332],[55.3070261,25.2863939],[55.306774,25.2862518],[55.3068848,25.2860911],[55.3071369,25.2862332]]]}},{"type":"Feature","properties":{"status":"existing","bHeight":12.0,"name":"","levels":""},"geometry":{"type":"Polygon","coordinates":[[[55.3067686,25.2859928],[55.3066519,25.2861548],[55.3064019,25.2860076],[55.3065186,25.2858457],[55.3067686,25.2859928]]]}},{"type":"Feature","properties":{"status":"existing","bHeight":12.0,"name":"","levels":""},"geometry":{"type":"Polygon","coordinates":[[[55.3063953,25.2857644],[55.3062811,25.2859306],[55.3060197,25.2857836],[55.3061339,25.2856174],[55.3063953,25.2857644]]]}},{"type":"Feature","properties":{"status":"existing","bHeight":12.0,"name":"","levels":""},"geometry":{"type":"Polygon","coordinates":[[[55.3059926,25.2855682],[55.3058771,25.2857328],[55.3056166,25.2855833],[55.305732,25.2854187],[55.3059926,25.2855682]]]}},{"type":"Feature","properties":{"status":"existing","bHeight":12.0,"name":"","levels":""},"geometry":{"type":"Polygon","coordinates":[[[55.3053089,25.2849873],[55.3051939,25.2851532],[55.304934,25.285006],[55.3050489,25.2848401],[55.3053089,25.2849873]]]}},{"type":"Feature","properties":{"status":"existing","bHeight":12.0,"name":"","levels":""},"geometry":{"type":"Polygon","coordinates":[[[55.3048541,25.28487],[55.3047406,25.2850327],[55.3044865,25.2848879],[55.3045999,25.2847252],[55.3048541,25.28487]]]}},{"type":"Feature","properties":{"status":"existing","bHeight":12.0,"name":"","levels":""},"geometry":{"type":"Polygon","coordinates":[[[55.3034741,25.2841631],[55.3033586,25.2843262],[55.3031017,25.2841774],[55.3032171,25.2840144],[55.3034741,25.2841631]]]}},{"type":"Feature","properties":{"status":"existing","bHeight":12.0,"name":"","levels":""},"geometry":{"type":"Polygon","coordinates":[[[55.3040851,25.2848494],[55.3037338,25.2853487],[55.3034818,25.2852038],[55.3038331,25.2847045],[55.3040851,25.2848494]]]}},{"type":"Feature","properties":{"status":"existing","bHeight":12.0,"name":"","levels":""},"geometry":{"type":"Polygon","coordinates":[[[55.3036707,25.2846932],[55.3033338,25.2851871],[55.3030672,25.2850384],[55.3034042,25.2845445],[55.3036707,25.2846932]]]}},{"type":"Feature","properties":{"status":"existing","bHeight":12.0,"name":"","levels":""},"geometry":{"type":"Polygon","coordinates":[[[55.3032745,25.2844722],[55.3029325,25.2849602],[55.3026702,25.2848099],[55.3030121,25.2843219],[55.3032745,25.2844722]]]}},{"type":"Feature","properties":{"status":"existing","bHeight":12.0,"name":"","levels":""},"geometry":{"type":"Polygon","coordinates":[[[55.3032127,25.2854546],[55.3028714,25.2859503],[55.3026054,25.2858006],[55.3029467,25.2853049],[55.3032127,25.2854546]]]}},{"type":"Feature","properties":{"status":"existing","bHeight":12.0,"name":"","levels":""},"geometry":{"type":"Polygon","coordinates":[[[55.3034996,25.2857008],[55.3031559,25.2862007],[55.3028925,25.2860526],[55.3032362,25.2855527],[55.3034996,25.2857008]]]}},{"type":"Feature","properties":{"status":"existing","bHeight":12.0,"name":"","levels":""},"geometry":{"type":"Polygon","coordinates":[[[55.3028051,25.2853057],[55.3024624,25.2858003],[55.3022078,25.2856561],[55.3025506,25.2851616],[55.3028051,25.2853057]]]}},{"type":"Feature","properties":{"status":"existing","bHeight":12.0,"name":"","levels":""},"geometry":{"type":"Polygon","coordinates":[[[55.3069708,25.2876701],[55.3066293,25.2881708],[55.3063661,25.2880241],[55.3067075,25.2875234],[55.3069708,25.2876701]]]}},{"type":"Feature","properties":{"status":"existing","bHeight":12.0,"name":"","levels":""},"geometry":{"type":"Polygon","coordinates":[[[55.3076089,25.2868893],[55.3072606,25.2873823],[55.3070015,25.2872327],[55.3073498,25.2867396],[55.3076089,25.2868893]]]}},{"type":"Feature","properties":{"status":"existing","bHeight":12.0,"name":"","levels":""},"geometry":{"type":"Polygon","coordinates":[[[55.3079207,25.2871931],[55.3075801,25.2876952],[55.307321,25.2875515],[55.3076616,25.2870494],[55.3079207,25.2871931]]]}},{"type":"Feature","properties":{"status":"existing","bHeight":12.0,"name":"","levels":""},"geometry":{"type":"Polygon","coordinates":[[[55.3083546,25.287358],[55.3080133,25.2878599],[55.3077479,25.2877124],[55.3080892,25.2872105],[55.3083546,25.287358]]]}},{"type":"Feature","properties":{"status":"existing","bHeight":12.0,"name":"","levels":""},"geometry":{"type":"Polygon","coordinates":[[[55.3089154,25.2873126],[55.3085596,25.2878345],[55.3082989,25.2876893],[55.3086547,25.2871674],[55.3089154,25.2873126]]]}},{"type":"Feature","properties":{"status":"existing","bHeight":12.0,"name":"","levels":""},"geometry":{"type":"Polygon","coordinates":[[[55.3091316,25.2877917],[55.3087785,25.2882973],[55.30852,25.2881498],[55.3088731,25.2876441],[55.3091316,25.2877917]]]}},{"type":"Feature","properties":{"status":"existing","bHeight":12.0,"name":"","levels":""},"geometry":{"type":"Polygon","coordinates":[[[55.3095179,25.2880197],[55.3091682,25.2885079],[55.3089138,25.288359],[55.3092636,25.2878708],[55.3095179,25.2880197]]]}},{"type":"Feature","properties":{"status":"existing","bHeight":12.0,"name":"","levels":""},"geometry":{"type":"Polygon","coordinates":[[[55.3099885,25.2881036],[55.3096495,25.2886036],[55.3093861,25.2884576],[55.3097251,25.2879576],[55.3099885,25.2881036]]]}},{"type":"Feature","properties":{"status":"existing","bHeight":12.0,"name":"","levels":""},"geometry":{"type":"Polygon","coordinates":[[[55.3102989,25.288448],[55.3099517,25.2889522],[55.3096937,25.288807],[55.3100409,25.2883028],[55.3102989,25.288448]]]}},{"type":"Feature","properties":{"status":"existing","bHeight":12.0,"name":"","levels":""},"geometry":{"type":"Polygon","coordinates":[[[55.3094216,25.2889795],[55.3090658,25.2895014],[55.3088052,25.2893562],[55.309161,25.2888343],[55.3094216,25.2889795]]]}},{"type":"Feature","properties":{"status":"existing","bHeight":12.0,"name":"","levels":""},"geometry":{"type":"Polygon","coordinates":[[[55.3101093,25.2893693],[55.309753,25.2898745],[55.3094954,25.289726],[55.3098516,25.2892208],[55.3101093,25.2893693]]]}},{"type":"Feature","properties":{"status":"existing","bHeight":12.0,"name":"","levels":""},"geometry":{"type":"Polygon","coordinates":[[[55.3074755,25.2877955],[55.3071347,25.2876001],[55.3067841,25.2881],[55.3071249,25.2882954],[55.3074755,25.2877955]]]}},{"type":"Feature","properties":{"status":"existing","bHeight":12.0,"name":"","levels":""},"geometry":{"type":"Polygon","coordinates":[[[55.3082123,25.2882947],[55.3078612,25.2880973],[55.3075094,25.288609],[55.3078605,25.2888064],[55.3082123,25.2882947]]]}},{"type":"Feature","properties":{"status":"existing","bHeight":12.0,"name":"","levels":""},"geometry":{"type":"Polygon","coordinates":[[[55.3086053,25.288604],[55.3082669,25.2884054],[55.3079091,25.2889038],[55.3082475,25.2891023],[55.3086053,25.288604]]]}},{"type":"Feature","properties":{"status":"existing","bHeight":12.0,"name":"","levels":""},"geometry":{"type":"Polygon","coordinates":[[[55.3090152,25.2888387],[55.3086871,25.2886504],[55.3083253,25.2891659],[55.3086534,25.2893542],[55.3090152,25.2888387]]]}},{"type":"Feature","properties":{"status":"existing","bHeight":12.0,"name":"","levels":""},"geometry":{"type":"Polygon","coordinates":[[[55.3077843,25.2880525],[55.30744,25.2885526],[55.3071791,25.2884057],[55.3075234,25.2879056],[55.3077843,25.2880525]]]}},{"type":"Feature","properties":{"status":"existing","bHeight":12.0,"name":"","levels":""},"geometry":{"type":"Polygon","coordinates":[[[55.3078176,25.2865699],[55.307703,25.2867307],[55.3074491,25.2865829],[55.3075637,25.286422],[55.3078176,25.2865699]]]}},{"type":"Feature","properties":{"status":"existing","bHeight":12.0,"name":"","levels":""},"geometry":{"type":"Polygon","coordinates":[[[55.3081522,25.286863],[55.3080382,25.2870254],[55.3077794,25.286877],[55.3078933,25.2867145],[55.3081522,25.286863]]]}},{"type":"Feature","properties":{"status":"existing","bHeight":12.0,"name":"","levels":""},"geometry":{"type":"Polygon","coordinates":[[[55.308569,25.2870434],[55.3084498,25.2872111],[55.3081845,25.287057],[55.3083038,25.2868892],[55.308569,25.2870434]]]}},{"type":"Feature","properties":{"status":"existing","bHeight":12.0,"name":"","levels":""},"geometry":{"type":"Polygon","coordinates":[[[55.3093036,25.2875378],[55.3091877,25.2876995],[55.3089334,25.2875505],[55.3090494,25.2873888],[55.3093036,25.2875378]]]}},{"type":"Feature","properties":{"status":"existing","bHeight":12.0,"name":"","levels":""},"geometry":{"type":"Polygon","coordinates":[[[55.3096854,25.2877562],[55.3095707,25.2879191],[55.3093138,25.2877714],[55.3094285,25.2876084],[55.3096854,25.2877562]]]}},{"type":"Feature","properties":{"status":"existing","bHeight":12.0,"name":"","levels":""},"geometry":{"type":"Polygon","coordinates":[[[55.3101553,25.2878594],[55.3100419,25.2880224],[55.3097823,25.2878747],[55.3098957,25.2877118],[55.3101553,25.2878594]]]}},{"type":"Feature","properties":{"status":"existing","bHeight":12.0,"name":"","levels":""},"geometry":{"type":"Polygon","coordinates":[[[55.3104398,25.288225],[55.3103262,25.2883935],[55.3100639,25.288249],[55.3101775,25.2880805],[55.3104398,25.288225]]]}},{"type":"Feature","properties":{"status":"existing","bHeight":12.0,"name":"","levels":""},"geometry":{"type":"Polygon","coordinates":[[[55.3107427,25.2885702],[55.3106258,25.2887354],[55.3103673,25.288586],[55.3104842,25.2884208],[55.3107427,25.2885702]]]}},{"type":"Feature","properties":{"status":"existing","bHeight":12.0,"name":"","levels":""},"geometry":{"type":"Polygon","coordinates":[[[55.3111061,25.288764],[55.3110106,25.288901],[55.3107804,25.2887699],[55.3108937,25.2886073],[55.3110162,25.2886771],[55.3109984,25.2887026],[55.3111061,25.288764]]]}},{"type":"Feature","properties":{"status":"existing","bHeight":12.0,"name":"","levels":""},"geometry":{"type":"Polygon","coordinates":[[[55.3114729,25.2890666],[55.3113565,25.2892335],[55.3110992,25.2890868],[55.3112157,25.2889199],[55.3114729,25.2890666]]]}},{"type":"Feature","properties":{"status":"existing","bHeight":12.0,"name":"","levels":""},"geometry":{"type":"Polygon","coordinates":[[[55.3105534,25.2888556],[55.3102897,25.2892402],[55.310034,25.2890969],[55.3102978,25.2887123],[55.3105534,25.2888556]]]}},{"type":"Feature","properties":{"status":"existing","bHeight":12.0,"name":"","levels":""},"geometry":{"type":"Polygon","coordinates":[[[55.3153044,25.292976],[55.3153238,25.2929886],[55.3153376,25.2930061],[55.3153446,25.2930267],[55.3153439,25.2930482],[55.3153356,25.2930684],[55.3153206,25.2930851],[55.3153006,25.2930967],[55.3152767,25.2931019],[55.3152522,25.2930997],[55.3152299,25.2930903],[55.3152123,25.2930748],[55.3152013,25.2930549],[55.3151982,25.2930329],[55.3152033,25.2930112],[55.315216,25.2929922],[55.3152349,25.292978],[55.3152579,25.2929702],[55.3152817,25.2929697],[55.3153044,25.292976]]]}},{"type":"Feature","properties":{"status":"existing","bHeight":12.0,"name":"","levels":""},"geometry":{"type":"Polygon","coordinates":[[[55.3125403,25.2896009],[55.3124307,25.2897622],[55.3121619,25.2896129],[55.3122715,25.2894516],[55.3125403,25.2896009]]]}},{"type":"Feature","properties":{"status":"existing","bHeight":12.0,"name":"","levels":""},"geometry":{"type":"Polygon","coordinates":[[[55.3097906,25.2899748],[55.3101414,25.2894749],[55.3104864,25.2896728],[55.3101357,25.2901727],[55.3097906,25.2899748]]]}},{"type":"Feature","properties":{"status":"existing","bHeight":12.0,"name":"","levels":""},"geometry":{"type":"Polygon","coordinates":[[[55.310228,25.2902244],[55.3104953,25.2898419],[55.3108416,25.2900398],[55.3105743,25.2904223],[55.310228,25.2902244]]]}},{"type":"Feature","properties":{"status":"existing","bHeight":12.0,"name":"","levels":""},"geometry":{"type":"Polygon","coordinates":[[[55.3103764,25.2893719],[55.3107106,25.2888808],[55.310972,25.2890262],[55.3106378,25.2895173],[55.3103764,25.2893719]]]}},{"type":"Feature","properties":{"status":"existing","bHeight":12.0,"name":"","levels":""},"geometry":{"type":"Polygon","coordinates":[[[55.3107625,25.2895802],[55.3110158,25.2892105],[55.3112728,25.2893544],[55.3110196,25.2897241],[55.3107625,25.2895802]]]}},{"type":"Feature","properties":{"status":"existing","bHeight":12.0,"name":"","levels":""},"geometry":{"type":"Polygon","coordinates":[[[55.3109414,25.2906279],[55.3111961,25.290252],[55.3114538,25.2903947],[55.3111991,25.2907706],[55.3109414,25.2906279]]]}},{"type":"Feature","properties":{"status":"existing","bHeight":12.0,"name":"","levels":""},"geometry":{"type":"Polygon","coordinates":[[[55.3113112,25.2907604],[55.3116546,25.2902516],[55.3120012,25.2904429],[55.3116578,25.2909516],[55.3113112,25.2907604]]]}},{"type":"Feature","properties":{"status":"existing","bHeight":12.0,"name":"","levels":""},"geometry":{"type":"Polygon","coordinates":[[[55.3117387,25.2910158],[55.3120989,25.2905058],[55.3123561,25.2906543],[55.3119959,25.2911643],[55.3117387,25.2910158]]]}},{"type":"Feature","properties":{"status":"existing","bHeight":12.0,"name":"","levels":""},"geometry":{"type":"Polygon","coordinates":[[[55.3114485,25.2898663],[55.3118067,25.2893548],[55.3120677,25.2895041],[55.3117095,25.2900157],[55.3114485,25.2898663]]]}},{"type":"Feature","properties":{"status":"existing","bHeight":12.0,"name":"","levels":""},"geometry":{"type":"Polygon","coordinates":[[[55.3118492,25.29008],[55.3121048,25.2897067],[55.3123599,25.2898495],[55.3121043,25.2902228],[55.3118492,25.29008]]]}},{"type":"Feature","properties":{"status":"existing","bHeight":12.0,"name":"","levels":""},"geometry":{"type":"Polygon","coordinates":[[[55.3121909,25.2903626],[55.3125373,25.2898441],[55.3127967,25.2899857],[55.3124503,25.2905043],[55.3121909,25.2903626]]]}},{"type":"Feature","properties":{"status":"existing","bHeight":12.0,"name":"","levels":""},"geometry":{"type":"Polygon","coordinates":[[[55.3130361,25.2903786],[55.3129334,25.2905315],[55.3126997,25.2904032],[55.3128024,25.2902503],[55.3130361,25.2903786]]]}},{"type":"Feature","properties":{"status":"existing","bHeight":12.0,"name":"","levels":""},"geometry":{"type":"Polygon","coordinates":[[[55.3120752,25.2912079],[55.3124324,25.2906933],[55.3127758,25.2908882],[55.3124186,25.2914027],[55.3120752,25.2912079]]]}},{"type":"Feature","properties":{"status":"existing","bHeight":12.0,"name":"","levels":""},"geometry":{"type":"Polygon","coordinates":[[[55.3130571,25.2915192],[55.313331,25.2911325],[55.3129888,25.2909343],[55.3127149,25.291321],[55.3130571,25.2915192]]]}},{"type":"Feature","properties":{"status":"existing","bHeight":12.0,"name":"","levels":""},"geometry":{"type":"Polygon","coordinates":[[[55.31327,25.2913968],[55.3135415,25.291011],[55.3137991,25.2911592],[55.3135277,25.291545],[55.31327,25.2913968]]]}},{"type":"Feature","properties":{"status":"existing","bHeight":12.0,"name":"","levels":""},"geometry":{"type":"Polygon","coordinates":[[[55.3137022,25.2914467],[55.3139763,25.2910512],[55.3142356,25.2911981],[55.3139615,25.2915936],[55.3137022,25.2914467]]]}},{"type":"Feature","properties":{"status":"existing","bHeight":12.0,"name":"","levels":""},"geometry":{"type":"Polygon","coordinates":[[[55.3135261,25.2907957],[55.3134137,25.2909617],[55.3131589,25.2908173],[55.3132619,25.2906477],[55.3135261,25.2907957]]]}},{"type":"Feature","properties":{"status":"existing","bHeight":12.0,"name":"","levels":""},"geometry":{"type":"Polygon","coordinates":[[[55.3021945,25.2847128],[55.3024526,25.2843455],[55.3027013,25.2844884],[55.3024432,25.2848556],[55.3021945,25.2847128]]]}},{"type":"Feature","properties":{"status":"existing","bHeight":12.0,"name":"","levels":""},"geometry":{"type":"Polygon","coordinates":[[[55.3018158,25.2844949],[55.3020695,25.2841247],[55.3023254,25.284268],[55.3020717,25.2846383],[55.3018158,25.2844949]]]}},{"type":"Feature","properties":{"status":"existing","bHeight":12.0,"name":"","levels":""},"geometry":{"type":"Polygon","coordinates":[[[55.3027978,25.2843771],[55.3030526,25.2839992],[55.3027916,25.2838553],[55.3025368,25.2842332],[55.3027978,25.2843771]]]}},{"type":"Feature","properties":{"status":"existing","bHeight":12.0,"name":"","levels":""},"geometry":{"type":"Polygon","coordinates":[[[55.302174,25.2848692],[55.3018262,25.2853646],[55.3015767,25.2852214],[55.3019246,25.284726],[55.302174,25.2848692]]]}},{"type":"Feature","properties":{"status":"existing","bHeight":12.0,"name":"","levels":""},"geometry":{"type":"Polygon","coordinates":[[[55.301441,25.2852162],[55.3016978,25.2848522],[55.3014442,25.2847059],[55.3011874,25.28507],[55.301441,25.2852162]]]}},{"type":"Feature","properties":{"status":"existing","bHeight":12.0,"name":"","levels":""},"geometry":{"type":"Polygon","coordinates":[[[55.3021333,25.2835111],[55.3020222,25.2836762],[55.3017576,25.2835307],[55.3018687,25.2833655],[55.3021333,25.2835111]]]}},{"type":"Feature","properties":{"status":"existing","bHeight":12.0,"name":"","levels":""},"geometry":{"type":"Polygon","coordinates":[[[55.3014094,25.283985],[55.3012944,25.2841493],[55.3010348,25.2840007],[55.3011499,25.2838364],[55.3014094,25.283985]]]}},{"type":"Feature","properties":{"status":"existing","bHeight":12.0,"name":"","levels":""},"geometry":{"type":"Polygon","coordinates":[[[55.3009282,25.2839975],[55.3011861,25.2836176],[55.3009335,25.2834774],[55.3006756,25.2838572],[55.3009282,25.2839975]]]}},{"type":"Feature","properties":{"status":"existing","bHeight":12.0,"name":"","levels":""},"geometry":{"type":"Polygon","coordinates":[[[55.300484,25.2839343],[55.3002305,25.2837916],[55.3005792,25.2832852],[55.3008326,25.2834278],[55.300484,25.2839343]]]}},{"type":"Feature","properties":{"status":"existing","bHeight":12.0,"name":"","levels":""},"geometry":{"type":"Polygon","coordinates":[[[55.3010898,25.284465],[55.3008038,25.2848699],[55.3005447,25.2847203],[55.3008307,25.2843154],[55.3010898,25.284465]]]}},{"type":"Feature","properties":{"status":"existing","bHeight":12.0,"name":"","levels":""},"geometry":{"type":"Polygon","coordinates":[[[55.3007623,25.2842798],[55.3004756,25.2846808],[55.3002095,25.2845252],[55.3004962,25.2841242],[55.3007623,25.2842798]]]}},{"type":"Feature","properties":{"status":"existing","bHeight":12.0,"name":"","levels":""},"geometry":{"type":"Polygon","coordinates":[[[55.3004068,25.2840775],[55.3001259,25.2844786],[55.2998697,25.284332],[55.3001506,25.2839308],[55.3004068,25.2840775]]]}},{"type":"Feature","properties":{"status":"existing","bHeight":12.0,"name":"","levels":""},"geometry":{"type":"Polygon","coordinates":[[[55.2997495,25.2842701],[55.3000135,25.2839032],[55.2996849,25.28371],[55.299421,25.2840769],[55.2997495,25.2842701]]]}},{"type":"Feature","properties":{"status":"existing","bHeight":12.0,"name":"","levels":""},"geometry":{"type":"Polygon","coordinates":[[[55.2993135,25.2840204],[55.2995758,25.2836494],[55.2992409,25.2834558],[55.2989786,25.2838269],[55.2993135,25.2840204]]]}},{"type":"Feature","properties":{"status":"existing","bHeight":12.0,"name":"","levels":""},"geometry":{"type":"Polygon","coordinates":[[[55.2988893,25.2837734],[55.2991484,25.2833969],[55.2988136,25.2832084],[55.2985544,25.2835849],[55.2988893,25.2837734]]]}},{"type":"Feature","properties":{"status":"existing","bHeight":12.0,"name":"","levels":""},"geometry":{"type":"Polygon","coordinates":[[[55.2992987,25.2833661],[55.2996431,25.2828716],[55.2999858,25.2830668],[55.2996414,25.2835613],[55.2992987,25.2833661]]]}},{"type":"Feature","properties":{"status":"existing","bHeight":12.0,"name":"","levels":""},"geometry":{"type":"Polygon","coordinates":[[[55.2988859,25.2830943],[55.2992291,25.2825882],[55.2995765,25.2827808],[55.2992332,25.2832869],[55.2988859,25.2830943]]]}},{"type":"Feature","properties":{"status":"existing","bHeight":12.0,"name":"","levels":""},"geometry":{"type":"Polygon","coordinates":[[[55.2988086,25.2830194],[55.2985573,25.2833887],[55.2983004,25.2832457],[55.2985516,25.2828765],[55.2988086,25.2830194]]]}},{"type":"Feature","properties":{"status":"existing","bHeight":12.0,"name":"","levels":""},"geometry":{"type":"Polygon","coordinates":[[[55.298123,25.2833303],[55.2984626,25.2828449],[55.2982089,25.2826998],[55.2978693,25.2831852],[55.298123,25.2833303]]]}},{"type":"Feature","properties":{"status":"existing","bHeight":12.0,"name":"","levels":""},"geometry":{"type":"Polygon","coordinates":[[[55.3000459,25.2827824],[55.2999311,25.2829479],[55.2996737,25.282802],[55.2997884,25.2826365],[55.3000459,25.2827824]]]}},{"type":"Feature","properties":{"status":"existing","bHeight":12.0,"name":"","levels":""},"geometry":{"type":"Polygon","coordinates":[[[55.2996806,25.2825285],[55.2995654,25.2826876],[55.2993155,25.2825396],[55.2994307,25.2823806],[55.2996806,25.2825285]]]}},{"type":"Feature","properties":{"status":"existing","bHeight":12.0,"name":"","levels":""},"geometry":{"type":"Polygon","coordinates":[[[55.2990192,25.282728],[55.2989039,25.2828884],[55.2986494,25.2827388],[55.2987648,25.2825784],[55.2990192,25.282728]]]}},{"type":"Feature","properties":{"status":"existing","bHeight":12.0,"name":"","levels":""},"geometry":{"type":"Polygon","coordinates":[[[55.2986735,25.2825324],[55.2985584,25.2826953],[55.2983054,25.2825491],[55.2984205,25.2823862],[55.2986735,25.2825324]]]}},{"type":"Feature","properties":{"status":"existing","bHeight":12.0,"name":"","levels":""},"geometry":{"type":"Polygon","coordinates":[[[55.294076,25.3557194],[55.2939233,25.3557189],[55.2939239,25.3555668],[55.2940767,25.3555673],[55.294076,25.3557194]]]}},{"type":"Feature","properties":{"status":"existing","bHeight":12.0,"name":"","levels":""},"geometry":{"type":"Polygon","coordinates":[[[55.2947907,25.355003],[55.2949133,25.355028],[55.2949047,25.3550627],[55.2947821,25.3550377],[55.2947907,25.355003]]]}},{"type":"Feature","properties":{"status":"existing","bHeight":12.0,"name":"","levels":""},"geometry":{"type":"Polygon","coordinates":[[[55.2946553,25.3549748],[55.2947779,25.3549997],[55.2947693,25.3550344],[55.2946467,25.3550095],[55.2946553,25.3549748]]]}},{"type":"Feature","properties":{"status":"existing","bHeight":12.0,"name":"","levels":""},"geometry":{"type":"Polygon","coordinates":[[[55.2946747,25.3548705],[55.2946448,25.3549808],[55.2946066,25.3549724],[55.2946364,25.354862],[55.2946747,25.3548705]]]}},{"type":"Feature","properties":{"status":"existing","bHeight":12.0,"name":"","levels":""},"geometry":{"type":"Polygon","coordinates":[[[55.3051021,25.3379201],[55.304958,25.3376067],[55.304732,25.3376916],[55.3047238,25.3376738],[55.3046767,25.3376915],[55.3046866,25.3377128],[55.3045986,25.3377459],[55.3047034,25.3379735],[55.3046837,25.3379809],[55.3047215,25.338063],[55.3051021,25.3379201]]]}},{"type":"Feature","properties":{"status":"existing","bHeight":12.0,"name":"","levels":""},"geometry":{"type":"Polygon","coordinates":[[[55.2293885,25.3544783],[55.2296088,25.3545094],[55.2296031,25.3545443],[55.2294282,25.3545196],[55.2294222,25.3545483],[55.2293696,25.3545411],[55.2293801,25.3545093],[55.2293885,25.3544783]]]}},{"type":"Feature","properties":{"status":"existing","bHeight":12.0,"name":"","levels":""},"geometry":{"type":"Polygon","coordinates":[[[55.2294872,25.354329],[55.2295116,25.3543891],[55.2293921,25.3544286],[55.2293677,25.3543686],[55.2294872,25.354329]]]}},{"type":"Feature","properties":{"status":"existing","bHeight":12.0,"name":"","levels":""},"geometry":{"type":"Polygon","coordinates":[[[55.2289533,25.3542869],[55.2289125,25.3543311],[55.228804,25.3542494],[55.2288447,25.3542052],[55.2289533,25.3542869]]]}},{"type":"Feature","properties":{"status":"existing","bHeight":12.0,"name":"","levels":""},"geometry":{"type":"Polygon","coordinates":[[[55.2288297,25.3541712],[55.2287583,25.3542189],[55.2287231,25.3541757],[55.2287282,25.3541308],[55.2287512,25.354118],[55.2287987,25.3541333],[55.2288297,25.3541712]]]}},{"type":"Feature","properties":{"status":"existing","bHeight":12.0,"name":"","levels":""},"geometry":{"type":"Polygon","coordinates":[[[55.2295768,25.3543514],[55.2295301,25.3542832],[55.2295805,25.354255],[55.2296296,25.3542633],[55.2296419,25.354285],[55.2296212,25.3543265],[55.2295768,25.3543514]]]}},{"type":"Feature","properties":{"status":"existing","bHeight":12.0,"name":"","levels":""},"geometry":{"type":"Polygon","coordinates":[[[55.2291192,25.3543741],[55.2290835,25.3543641],[55.2290946,25.3543348],[55.2290328,25.3543165],[55.2289992,25.3544003],[55.2290933,25.3544314],[55.2290883,25.3544982],[55.2291105,25.3545192],[55.2291338,25.354521],[55.2291561,25.3545046],[55.2291743,25.3544451],[55.2292775,25.354446],[55.2292836,25.3543601],[55.2292178,25.3543582],[55.2292162,25.3543901],[55.2291798,25.3543892],[55.2291844,25.354339],[55.2291328,25.3543317],[55.2291192,25.3543741]]]}},{"type":"Feature","properties":{"status":"existing","bHeight":12.0,"name":"","levels":""},"geometry":{"type":"Polygon","coordinates":[[[55.3080713,25.3388811],[55.3083633,25.338766],[55.3081647,25.3383546],[55.3078728,25.3384697],[55.3080713,25.3388811]]]}},{"type":"Feature","properties":{"status":"existing","bHeight":12.0,"name":"","levels":""},"geometry":{"type":"Polygon","coordinates":[[[55.2307607,25.3601686],[55.2308409,25.360215],[55.2307774,25.3603045],[55.2307135,25.3602675],[55.2307456,25.3602222],[55.2307293,25.3602128],[55.2307607,25.3601686]]]}},{"type":"Feature","properties":{"status":"existing","bHeight":12.0,"name":"","levels":""},"geometry":{"type":"Polygon","coordinates":[[[55.2308782,25.3602777],[55.2308573,25.3603201],[55.2310144,25.3603832],[55.2310352,25.3603409],[55.2308782,25.3602777]]]}},{"type":"Feature","properties":{"status":"existing","bHeight":12.0,"name":"","levels":""},"geometry":{"type":"Polygon","coordinates":[[[55.2311922,25.360495],[55.2312211,25.3605121],[55.2312009,25.36054],[55.231172,25.3605229],[55.2311922,25.360495]]]}},{"type":"Feature","properties":{"status":"existing","bHeight":12.0,"name":"","levels":""},"geometry":{"type":"Polygon","coordinates":[[[55.2312303,25.3605617],[55.2312507,25.3605342],[55.2312755,25.3605491],[55.2312551,25.3605767],[55.2312303,25.3605617]]]}},{"type":"Feature","properties":{"status":"existing","bHeight":12.0,"name":"","levels":""},"geometry":{"type":"Polygon","coordinates":[[[55.3113212,25.3333801],[55.311142,25.3330467],[55.3108111,25.3331921],[55.3109903,25.3335254],[55.3113212,25.3333801]]]}},{"type":"Feature","properties":{"status":"existing","bHeight":12.0,"name":"","levels":""},"geometry":{"type":"Polygon","coordinates":[[[55.3189218,25.2961955],[55.3185542,25.2963284],[55.3184772,25.2961544],[55.3184485,25.2961647],[55.3183842,25.2960193],[55.3187805,25.2958761],[55.3189218,25.2961955]]]}},{"type":"Feature","properties":{"status":"existing","bHeight":12.0,"name":"","levels":""},"geometry":{"type":"Polygon","coordinates":[[[55.2942058,25.2904074],[55.2938425,25.2901699],[55.2936266,25.2904399],[55.2939369,25.2906427],[55.2939726,25.2905981],[55.294034,25.2906382],[55.2940633,25.2906015],[55.2940334,25.2905819],[55.2941208,25.2904726],[55.2941424,25.2904868],[55.2942058,25.2904074]]]}},{"type":"Feature","properties":{"status":"existing","bHeight":12.0,"name":"","levels":""},"geometry":{"type":"Polygon","coordinates":[[[55.2934673,25.2905643],[55.2936094,25.2906578],[55.2936498,25.2906076],[55.2935076,25.2905141],[55.2934673,25.2905643]]]}},{"type":"Feature","properties":{"status":"existing","bHeight":12.0,"name":"","levels":""},"geometry":{"type":"Polygon","coordinates":[[[55.2937489,25.2907502],[55.2937954,25.2906942],[55.2938835,25.2907539],[55.2938371,25.2908099],[55.2937489,25.2907502]]]}},{"type":"Feature","properties":{"status":"existing","bHeight":12.0,"name":"","levels":""},"geometry":{"type":"Polygon","coordinates":[[[55.2938601,25.2908236],[55.2939012,25.2907804],[55.2939178,25.2907933],[55.2938768,25.2908366],[55.2938601,25.2908236]]]}},{"type":"Feature","properties":{"status":"existing","bHeight":12.0,"name":"","levels":""},"geometry":{"type":"Polygon","coordinates":[[[55.2937126,25.2906876],[55.29371,25.2906966],[55.2937109,25.2907059],[55.2937152,25.2907143],[55.2937225,25.2907209],[55.2937318,25.290725],[55.2937421,25.2907259],[55.2937521,25.2907237],[55.2937601,25.290719],[55.293766,25.2907123],[55.2937694,25.2907042],[55.2937698,25.2906956],[55.2937672,25.2906873],[55.2937619,25.2906802],[55.2937543,25.2906749],[55.2937454,25.2906721],[55.2937358,25.2906719],[55.2937267,25.2906744],[55.2937184,25.2906798],[55.2937126,25.2906876]]]}},{"type":"Feature","properties":{"status":"existing","bHeight":12.0,"name":"","levels":""},"geometry":{"type":"Polygon","coordinates":[[[55.2936529,25.2906497],[55.2936503,25.2906587],[55.2936512,25.290668],[55.2936556,25.2906764],[55.2936628,25.2906831],[55.2936722,25.2906871],[55.2936824,25.290688],[55.2936924,25.2906858],[55.2937004,25.2906811],[55.2937064,25.2906744],[55.2937097,25.2906663],[55.2937101,25.2906577],[55.2937075,25.2906494],[55.2937022,25.2906423],[55.2936947,25.290637],[55.2936857,25.2906342],[55.2936762,25.290634],[55.2936671,25.2906365],[55.2936587,25.290642],[55.2936529,25.2906497]]]}},{"type":"Feature","properties":{"status":"existing","bHeight":12.0,"name":"","levels":""},"geometry":{"type":"Polygon","coordinates":[[[55.3000947,25.2879984],[55.3006263,25.2882946],[55.3003126,25.2887547],[55.2997811,25.2884584],[55.3000947,25.2879984]]]}},{"type":"Feature","properties":{"status":"existing","bHeight":12.0,"name":"","levels":""},"geometry":{"type":"Polygon","coordinates":[[[55.299882,25.2885341],[55.3000696,25.288645],[55.3000492,25.2886733],[55.3001061,25.2887069],[55.3000704,25.2887564],[55.2998258,25.2886119],[55.299882,25.2885341]]]}},{"type":"Feature","properties":{"status":"existing","bHeight":12.0,"name":"","levels":""},"geometry":{"type":"Polygon","coordinates":[[[55.3242439,25.3072058],[55.3241075,25.3072474],[55.3242431,25.3076114],[55.3244243,25.3075563],[55.3244169,25.3075365],[55.3245994,25.3074809],[55.324495,25.3072009],[55.3244714,25.3072081],[55.3244461,25.3071405],[55.32434,25.3071728],[55.3244497,25.307467],[55.3244121,25.3074784],[55.3244013,25.3074495],[55.3243415,25.3074677],[55.3242439,25.3072058]]]}},{"type":"Feature","properties":{"status":"existing","bHeight":12.0,"name":"","levels":""},"geometry":{"type":"Polygon","coordinates":[[[55.3280182,25.3171663],[55.3279355,25.316836],[55.3275736,25.31691],[55.3275836,25.3169501],[55.3275321,25.3169606],[55.3275423,25.3170014],[55.3275639,25.316997],[55.3276086,25.3171759],[55.3275706,25.3171836],[55.3275882,25.3172543],[55.3280182,25.3171663]]]}},{"type":"Feature","properties":{"status":"existing","bHeight":12.0,"name":"","levels":""},"geometry":{"type":"Polygon","coordinates":[[[55.3273764,25.3169208],[55.3274376,25.31691],[55.3274678,25.3170494],[55.3274066,25.3170602],[55.3273764,25.3169208]]]}},{"type":"Feature","properties":{"status":"existing","bHeight":12.0,"name":"","levels":""},"geometry":{"type":"Polygon","coordinates":[[[55.3275564,25.3172603],[55.3275348,25.3171619],[55.3274874,25.3171704],[55.3274805,25.3171391],[55.3274359,25.3171471],[55.3274458,25.3171922],[55.3274579,25.31719],[55.3274765,25.3172747],[55.3275564,25.3172603]]]}},{"type":"Feature","properties":{"status":"existing","bHeight":12.0,"name":"","levels":""},"geometry":{"type":"Polygon","coordinates":[[[55.3180676,25.2990812],[55.318229,25.2990283],[55.3182878,25.299175],[55.3181265,25.2992279],[55.3180676,25.2990812]]]}},{"type":"Feature","properties":{"status":"existing","bHeight":12.0,"name":"","levels":""},"geometry":{"type":"Polygon","coordinates":[[[55.31791,25.2993548],[55.3179896,25.2995457],[55.3178781,25.2995836],[55.3177986,25.2993927],[55.31791,25.2993548]]]}},{"type":"Feature","properties":{"status":"existing","bHeight":12.0,"name":"","levels":""},"geometry":{"type":"Polygon","coordinates":[[[55.3177515,25.2992255],[55.3178855,25.2991808],[55.3179155,25.2992541],[55.3177815,25.2992989],[55.3177515,25.2992255]]]}},{"type":"Feature","properties":{"status":"existing","bHeight":12.0,"name":"","levels":""},"geometry":{"type":"Polygon","coordinates":[[[55.3194475,25.2992763],[55.3194203,25.2992102],[55.3195799,25.2991563],[55.3196072,25.2992224],[55.3194475,25.2992763]]]}},{"type":"Feature","properties":{"status":"existing","bHeight":12.0,"name":"","levels":""},"geometry":{"type":"Polygon","coordinates":[[[55.3188758,25.298591],[55.3187707,25.2983313],[55.3185916,25.2983906],[55.3186968,25.2986503],[55.3188758,25.298591]]]}},{"type":"Feature","properties":{"status":"existing","bHeight":12.0,"name":"","levels":""},"geometry":{"type":"Polygon","coordinates":[[[55.3187884,25.2982921],[55.318562,25.298368],[55.3185381,25.2983095],[55.3187645,25.2982337],[55.3187884,25.2982921]]]}},{"type":"Feature","properties":{"status":"existing","bHeight":12.0,"name":"","levels":""},"geometry":{"type":"Polygon","coordinates":[[[55.3192205,25.2983189],[55.319116,25.2980731],[55.3189578,25.2981281],[55.3190623,25.2983739],[55.3192205,25.2983189]]]}},{"type":"Feature","properties":{"status":"existing","bHeight":12.0,"name":"","levels":""},"geometry":{"type":"Polygon","coordinates":[[[55.3124217,25.2920073],[55.3124205,25.2916587],[55.3128642,25.2916575],[55.3128644,25.2917164],[55.3128357,25.2917165],[55.3128362,25.2918986],[55.3128662,25.2918985],[55.3128663,25.2919439],[55.3128071,25.2919441],[55.3128073,25.2920063],[55.3124217,25.2920073]]]}},{"type":"Feature","properties":{"status":"existing","bHeight":12.0,"name":"","levels":""},"geometry":{"type":"Polygon","coordinates":[[[55.3123889,25.2921056],[55.3125595,25.2921048],[55.3125599,25.2921727],[55.3123892,25.2921733],[55.3123889,25.2921056]]]}},{"type":"Feature","properties":{"status":"existing","bHeight":12.0,"name":"","levels":""},"geometry":{"type":"Polygon","coordinates":[[[55.3127165,25.2921722],[55.3127175,25.2920998],[55.3128333,25.2921012],[55.3128323,25.2921718],[55.3127165,25.2921722]]]}},{"type":"Feature","properties":{"status":"existing","bHeight":12.0,"name":"","levels":""},"geometry":{"type":"Polygon","coordinates":[[[55.3128584,25.2921717],[55.3128587,25.2921194],[55.3128855,25.2921195],[55.3128857,25.2921716],[55.3128584,25.2921717]]]}},{"type":"Feature","properties":{"status":"existing","bHeight":12.0,"name":"","levels":""},"geometry":{"type":"Polygon","coordinates":[[[55.3126624,25.2921158],[55.3126548,25.2921218],[55.31265,25.2921298],[55.3126484,25.2921389],[55.3126503,25.2921478],[55.3126555,25.2921557],[55.3126633,25.2921615],[55.3126728,25.2921645],[55.3126821,25.2921646],[55.3126909,25.2921621],[55.3126985,25.2921572],[55.3127039,25.2921504],[55.3127068,25.2921425],[55.3127068,25.2921341],[55.3127038,25.2921261],[55.3126983,25.2921194],[55.3126907,25.2921145],[55.3126818,25.2921121],[55.3126718,25.2921124],[55.3126624,25.2921158]]]}},{"type":"Feature","properties":{"status":"existing","bHeight":12.0,"name":"","levels":""},"geometry":{"type":"Polygon","coordinates":[[[55.3125916,25.2921158],[55.3125841,25.2921219],[55.3125792,25.2921299],[55.3125777,25.2921389],[55.3125796,25.2921479],[55.3125848,25.2921557],[55.3125926,25.2921615],[55.3126021,25.2921646],[55.3126114,25.2921647],[55.3126202,25.2921621],[55.3126277,25.2921573],[55.3126332,25.2921505],[55.3126361,25.2921425],[55.312636,25.2921341],[55.3126331,25.2921262],[55.3126276,25.2921194],[55.31262,25.2921146],[55.3126111,25.2921121],[55.312601,25.2921124],[55.3125916,25.2921158]]]}},{"type":"Feature","properties":{"status":"existing","bHeight":12.0,"name":"","levels":""},"geometry":{"type":"Polygon","coordinates":[[[55.3124939,25.292184],[55.3125332,25.2921845],[55.3125327,25.2922163],[55.3124934,25.2922158],[55.3124939,25.292184]]]}},{"type":"Feature","properties":{"status":"existing","bHeight":12.0,"name":"","levels":""},"geometry":{"type":"Polygon","coordinates":[[[55.3118288,25.2922025],[55.3119993,25.2919522],[55.3121,25.2920083],[55.3120664,25.2920577],[55.3122532,25.2921616],[55.3121164,25.2923626],[55.3118288,25.2922025]]]}},{"type":"Feature","properties":{"status":"existing","bHeight":12.0,"name":"","levels":""},"geometry":{"type":"Polygon","coordinates":[[[55.3117445,25.29231],[55.3117295,25.2923401],[55.3117265,25.292373],[55.3117359,25.2924049],[55.3117565,25.2924321],[55.311786,25.2924515],[55.311821,25.2924609],[55.3118574,25.2924591],[55.3118892,25.2924475],[55.3119154,25.2924273],[55.3119332,25.2924007],[55.3119408,25.2923704],[55.3119374,25.2923395],[55.3119234,25.2923111],[55.3119002,25.2922882],[55.3118702,25.2922731],[55.3118364,25.2922673],[55.3118024,25.2922714],[55.3117697,25.2922862],[55.3117445,25.29231]]]}},{"type":"Feature","properties":{"status":"existing","bHeight":12.0,"name":"","levels":""},"geometry":{"type":"Polygon","coordinates":[[[55.3119406,25.2914138],[55.3121026,25.2915033],[55.3120596,25.2915669],[55.3118977,25.2914773],[55.3119406,25.2914138]]]}},{"type":"Feature","properties":{"status":"existing","bHeight":12.0,"name":"","levels":""},"geometry":{"type":"Polygon","coordinates":[[[55.3116249,25.2913219],[55.3116498,25.291286],[55.3115957,25.2912553],[55.3115707,25.2912911],[55.3116249,25.2913219]]]}},{"type":"Feature","properties":{"status":"existing","bHeight":12.0,"name":"","levels":""},"geometry":{"type":"Polygon","coordinates":[[[55.3114184,25.2911133],[55.3113712,25.2911816],[55.3111701,25.2910679],[55.3112173,25.2909996],[55.3114184,25.2911133]]]}},{"type":"Feature","properties":{"status":"existing","bHeight":12.0,"name":"","levels":""},"geometry":{"type":"Polygon","coordinates":[[[55.3110661,25.2909125],[55.3110209,25.2909782],[55.3108135,25.2908615],[55.3108587,25.2907958],[55.3110661,25.2909125]]]}},{"type":"Feature","properties":{"status":"existing","bHeight":12.0,"name":"","levels":""},"geometry":{"type":"Polygon","coordinates":[[[55.3111034,25.2910294],[55.311133,25.2909858],[55.31108,25.2909564],[55.3110504,25.291],[55.3111034,25.2910294]]]}},{"type":"Feature","properties":{"status":"existing","bHeight":12.0,"name":"","levels":""},"geometry":{"type":"Polygon","coordinates":[[[55.3131573,25.2917756],[55.3131894,25.2917301],[55.3131381,25.2917004],[55.3131059,25.2917458],[55.3131573,25.2917756]]]}},{"type":"Feature","properties":{"status":"existing","bHeight":12.0,"name":"","levels":""},"geometry":{"type":"Polygon","coordinates":[[[55.3130666,25.2916635],[55.3131175,25.2916929],[55.3130865,25.2917368],[55.3130356,25.2917074],[55.3130666,25.2916635]]]}},{"type":"Feature","properties":{"status":"existing","bHeight":12.0,"name":"","levels":""},"geometry":{"type":"Polygon","coordinates":[[[55.314159,25.2915078],[55.3143469,25.2915443],[55.3143265,25.2916301],[55.3141386,25.2915936],[55.314159,25.2915078]]]}},{"type":"Feature","properties":{"status":"existing","bHeight":12.0,"name":"","levels":""},"geometry":{"type":"Polygon","coordinates":[[[55.3133909,25.2904771],[55.3135584,25.2905718],[55.3135008,25.2906552],[55.3133333,25.2905605],[55.3133909,25.2904771]]]}},{"type":"Feature","properties":{"status":"existing","bHeight":12.0,"name":"","levels":""},"geometry":{"type":"Polygon","coordinates":[[[55.3112887,25.2892472],[55.3113337,25.2892713],[55.3113049,25.2893152],[55.3112599,25.289291],[55.3112887,25.2892472]]]}},{"type":"Feature","properties":{"status":"existing","bHeight":12.0,"name":"","levels":""},"geometry":{"type":"Polygon","coordinates":[[[55.3093285,25.2892822],[55.3094224,25.2891396],[55.309497,25.2891798],[55.3094031,25.2893224],[55.3093285,25.2892822]]]}},{"type":"Feature","properties":{"status":"existing","bHeight":12.0,"name":"","levels":""},"geometry":{"type":"Polygon","coordinates":[[[55.3092594,25.2894755],[55.3094355,25.2895104],[55.3094022,25.2896479],[55.3092261,25.289613],[55.3092594,25.2894755]]]}},{"type":"Feature","properties":{"status":"existing","bHeight":12.0,"name":"","levels":""},"geometry":{"type":"Polygon","coordinates":[[[55.3092168,25.289855],[55.3091635,25.2899326],[55.3091541,25.2899273],[55.3089577,25.2898173],[55.309011,25.2897396],[55.3092168,25.289855]]]}},{"type":"Feature","properties":{"status":"existing","bHeight":12.0,"name":"","levels":""},"geometry":{"type":"Polygon","coordinates":[[[55.3096006,25.2900722],[55.3095487,25.2901468],[55.3093437,25.2900303],[55.3093955,25.2899557],[55.3096006,25.2900722]]]}},{"type":"Feature","properties":{"status":"existing","bHeight":12.0,"name":"","levels":""},"geometry":{"type":"Polygon","coordinates":[[[55.3098928,25.2903173],[55.3099132,25.2902852],[55.3098702,25.2902629],[55.3098574,25.290283],[55.3098498,25.2902949],[55.3098928,25.2903173]]]}},{"type":"Feature","properties":{"status":"existing","bHeight":12.0,"name":"","levels":""},"geometry":{"type":"Polygon","coordinates":[[[55.3093047,25.290011],[55.3093401,25.2899609],[55.3092963,25.2899357],[55.3092874,25.2899492],[55.3092607,25.2899853],[55.3093047,25.290011]]]}},{"type":"Feature","properties":{"status":"existing","bHeight":12.0,"name":"","levels":""},"geometry":{"type":"Polygon","coordinates":[[[55.3092607,25.2899853],[55.3092244,25.2899633],[55.3092511,25.2899273],[55.3092874,25.2899492],[55.3092607,25.2899853]]]}},{"type":"Feature","properties":{"status":"existing","bHeight":12.0,"name":"","levels":""},"geometry":{"type":"Polygon","coordinates":[[[55.3078044,25.2890557],[55.3077525,25.289131],[55.3075509,25.2890173],[55.3076028,25.288942],[55.3078044,25.2890557]]]}},{"type":"Feature","properties":{"status":"existing","bHeight":12.0,"name":"","levels":""},"geometry":{"type":"Polygon","coordinates":[[[55.3071585,25.2886898],[55.3071079,25.2887589],[55.3069156,25.2886438],[55.3069661,25.2885747],[55.3071585,25.2886898]]]}},{"type":"Feature","properties":{"status":"existing","bHeight":12.0,"name":"","levels":""},"geometry":{"type":"Polygon","coordinates":[[[55.3070846,25.2883531],[55.3068527,25.2882168],[55.3068028,25.2882862],[55.3070346,25.2884226],[55.3070846,25.2883531]]]}},{"type":"Feature","properties":{"status":"existing","bHeight":12.0,"name":"","levels":""},"geometry":{"type":"Polygon","coordinates":[[[55.3071644,25.2887937],[55.3071965,25.2887496],[55.3072465,25.2887794],[55.3072145,25.2888235],[55.3071644,25.2887937]]]}},{"type":"Feature","properties":{"status":"existing","bHeight":12.0,"name":"","levels":""},"geometry":{"type":"Polygon","coordinates":[[[55.3068134,25.2885981],[55.3068359,25.2885661],[55.3068771,25.2885898],[55.3068546,25.2886218],[55.3068134,25.2885981]]]}},{"type":"Feature","properties":{"status":"existing","bHeight":12.0,"name":"","levels":""},"geometry":{"type":"Polygon","coordinates":[[[55.3052258,25.2875807],[55.3054195,25.2876983],[55.3053673,25.2877686],[55.3051736,25.2876509],[55.3052006,25.2876145],[55.3052258,25.2875807]]]}},{"type":"Feature","properties":{"status":"existing","bHeight":12.0,"name":"","levels":""},"geometry":{"type":"Polygon","coordinates":[[[55.3043165,25.2870763],[55.3045168,25.2871902],[55.3044674,25.2872612],[55.3042671,25.2871473],[55.3043165,25.2870763]]]}},{"type":"Feature","properties":{"status":"existing","bHeight":12.0,"name":"","levels":""},"geometry":{"type":"Polygon","coordinates":[[[55.304001,25.2869036],[55.3041975,25.287017],[55.30415,25.2870845],[55.3039534,25.2869711],[55.304001,25.2869036]]]}},{"type":"Feature","properties":{"status":"existing","bHeight":12.0,"name":"","levels":""},"geometry":{"type":"Polygon","coordinates":[[[55.3038829,25.2869201],[55.3039114,25.2868813],[55.3039189,25.2868711],[55.3039674,25.2869003],[55.3039314,25.2869493],[55.3038829,25.2869201]]]}},{"type":"Feature","properties":{"status":"existing","bHeight":12.0,"name":"","levels":""},"geometry":{"type":"Polygon","coordinates":[[[55.3045375,25.287308],[55.3045034,25.2872884],[55.3045233,25.2872602],[55.3045573,25.2872798],[55.3045375,25.287308]]]}},{"type":"Feature","properties":{"status":"existing","bHeight":12.0,"name":"","levels":""},"geometry":{"type":"Polygon","coordinates":[[[55.3042301,25.2871306],[55.3041933,25.2871097],[55.3042127,25.2870817],[55.3042495,25.2871026],[55.3042301,25.2871306]]]}},{"type":"Feature","properties":{"status":"existing","bHeight":12.0,"name":"","levels":""},"geometry":{"type":"Polygon","coordinates":[[[55.3029334,25.2862901],[55.3027726,25.2862014],[55.3027268,25.2862692],[55.3028877,25.286358],[55.3029334,25.2862901]]]}},{"type":"Feature","properties":{"status":"existing","bHeight":12.0,"name":"","levels":""},"geometry":{"type":"Polygon","coordinates":[[[55.3181852,25.2996104],[55.3181677,25.2995592],[55.3182245,25.2995434],[55.3182419,25.2995946],[55.3181852,25.2996104]]]}},{"type":"Feature","properties":{"status":"existing","bHeight":12.0,"name":"","levels":""},"geometry":{"type":"Polygon","coordinates":[[[55.3177562,25.2996353],[55.3178181,25.2996158],[55.3178285,25.2996426],[55.3177666,25.2996622],[55.3177562,25.2996353]]]}},{"type":"Feature","properties":{"status":"existing","bHeight":12.0,"name":"","levels":""},"geometry":{"type":"Polygon","coordinates":[[[55.3176821,25.2996588],[55.317744,25.2996392],[55.3177543,25.2996661],[55.3176925,25.2996857],[55.3176821,25.2996588]]]}},{"type":"Feature","properties":{"status":"existing","bHeight":12.0,"name":"","levels":""},"geometry":{"type":"Polygon","coordinates":[[[55.3176239,25.2996529],[55.31762,25.2996558],[55.3176172,25.2996596],[55.317616,25.2996641],[55.3176164,25.2996686],[55.3176185,25.2996728],[55.3176219,25.2996762],[55.3176263,25.2996784],[55.3176314,25.2996791],[55.3176364,25.2996784],[55.3176409,25.2996762],[55.3176444,25.2996728],[55.3176464,25.2996685],[55.3176468,25.2996639],[55.3176455,25.2996595],[55.3176427,25.2996556],[55.3176386,25.2996528],[55.3176338,25.2996514],[55.3176287,25.2996514],[55.3176239,25.2996529]]]}},{"type":"Feature","properties":{"status":"existing","bHeight":12.0,"name":"","levels":""},"geometry":{"type":"Polygon","coordinates":[[[55.3175167,25.2996271],[55.3173248,25.2991658],[55.3174114,25.2991363],[55.3176034,25.2995976],[55.3175167,25.2996271]]]}},{"type":"Feature","properties":{"status":"existing","bHeight":12.0,"name":"","levels":""},"geometry":{"type":"Polygon","coordinates":[[[55.3176239,25.2995825],[55.3177584,25.2995377],[55.3177352,25.2994807],[55.3176006,25.2995254],[55.3176239,25.2995825]]]}},{"type":"Feature","properties":{"status":"existing","bHeight":12.0,"name":"","levels":""},"geometry":{"type":"Polygon","coordinates":[[[55.3175986,25.2995156],[55.3174564,25.2991606],[55.3175449,25.2991317],[55.317687,25.2994867],[55.3175986,25.2995156]]]}},{"type":"Feature","properties":{"status":"existing","bHeight":12.0,"name":"","levels":""},"geometry":{"type":"Polygon","coordinates":[[[55.3175807,25.2991613],[55.317889,25.29906],[55.3178436,25.2989471],[55.3174144,25.2990881],[55.3174369,25.2991439],[55.3175578,25.2991042],[55.3175807,25.2991613]]]}},{"type":"Feature","properties":{"status":"existing","bHeight":12.0,"name":"","levels":""},"geometry":{"type":"Polygon","coordinates":[[[55.3171702,25.2991006],[55.3172459,25.2990677],[55.3172719,25.2991168],[55.3171962,25.2991497],[55.3171702,25.2991006]]]}},{"type":"Feature","properties":{"status":"existing","bHeight":12.0,"name":"","levels":""},"geometry":{"type":"Polygon","coordinates":[[[55.319507,25.2990767],[55.3195201,25.2991075],[55.3195587,25.2990941],[55.3195456,25.2990633],[55.319507,25.2990767]]]}},{"type":"Feature","properties":{"status":"existing","bHeight":12.0,"name":"","levels":""},"geometry":{"type":"Polygon","coordinates":[[[55.3188917,25.2981118],[55.319104,25.298031],[55.3190443,25.2979028],[55.318832,25.2979837],[55.3188917,25.2981118]]]}},{"type":"Feature","properties":{"status":"existing","bHeight":12.0,"name":"","levels":""},"geometry":{"type":"Polygon","coordinates":[[[55.3189578,25.2981281],[55.3188606,25.298162],[55.3189654,25.2984077],[55.3190623,25.2983739],[55.3189578,25.2981281]]]}},{"type":"Feature","properties":{"status":"existing","bHeight":12.0,"name":"","levels":""},"geometry":{"type":"Polygon","coordinates":[[[55.3189609,25.2984311],[55.319187,25.2983535],[55.3191931,25.2983681],[55.3192986,25.2983319],[55.319348,25.2984495],[55.319243,25.2984855],[55.3192587,25.298523],[55.3190322,25.2986008],[55.3189609,25.2984311]]]}},{"type":"Feature","properties":{"status":"existing","bHeight":12.0,"name":"","levels":""},"geometry":{"type":"Polygon","coordinates":[[[55.3192458,25.2982926],[55.3192037,25.2981907],[55.3192333,25.2981807],[55.3192754,25.2982827],[55.3192458,25.2982926]]]}},{"type":"Feature","properties":{"status":"existing","bHeight":12.0,"name":"","levels":""},"geometry":{"type":"Polygon","coordinates":[[[55.3188564,25.2981178],[55.3188127,25.2980144],[55.3185214,25.2981151],[55.3185142,25.2980981],[55.3184605,25.2981166],[55.3184859,25.2981766],[55.3184745,25.2981805],[55.3185128,25.2982712],[55.3188373,25.2981591],[55.3188245,25.2981288],[55.3188564,25.2981178]]]}},{"type":"Feature","properties":{"status":"existing","bHeight":12.0,"name":"","levels":""},"geometry":{"type":"Polygon","coordinates":[[[55.318657,25.2986685],[55.3185939,25.2985123],[55.3184695,25.2985534],[55.3183588,25.2985899],[55.3182388,25.2986296],[55.3181301,25.2986654],[55.3180078,25.2987058],[55.3178904,25.2987446],[55.3179535,25.2989008],[55.318657,25.2986685]]]}},{"type":"Feature","properties":{"status":"existing","bHeight":12.0,"name":"","levels":""},"geometry":{"type":"Polygon","coordinates":[[[55.3177906,25.2984947],[55.3179116,25.298453],[55.3180289,25.2984125],[55.3181373,25.2983751],[55.3182565,25.298334],[55.3183682,25.2982955],[55.3184911,25.2982531],[55.3184193,25.298083],[55.3180068,25.2982252],[55.3180373,25.2982976],[55.3177494,25.2983969],[55.3177906,25.2984947]]]}},{"type":"Feature","properties":{"status":"existing","bHeight":12.0,"name":"","levels":""},"geometry":{"type":"Polygon","coordinates":[[[55.3081406,25.3006905],[55.3078366,25.3007286],[55.3078512,25.3008233],[55.3079471,25.3008113],[55.3079537,25.3008548],[55.3078369,25.3008695],[55.3078484,25.3009445],[55.3081432,25.3009076],[55.308123,25.3007759],[55.3081531,25.3007721],[55.3081406,25.3006905]]]}},{"type":"Feature","properties":{"status":"existing","bHeight":12.0,"name":"","levels":""},"geometry":{"type":"Polygon","coordinates":[[[55.3075157,25.30089],[55.3073556,25.3009054],[55.3073597,25.3009385],[55.3073471,25.3009398],[55.3073547,25.3010014],[55.3073705,25.3009998],[55.3073729,25.3010192],[55.3075283,25.3010045],[55.3075157,25.30089]]]}},{"type":"Feature","properties":{"status":"existing","bHeight":12.0,"name":"","levels":""},"geometry":{"type":"Polygon","coordinates":[[[55.306311,25.3010199],[55.306471,25.3010038],[55.3064749,25.3010369],[55.3064875,25.3010356],[55.3064948,25.3010973],[55.306479,25.3010988],[55.3064813,25.3011182],[55.306326,25.3011342],[55.306311,25.3010199]]]}},{"type":"Feature","properties":{"status":"existing","bHeight":12.0,"name":"","levels":""},"geometry":{"type":"Polygon","coordinates":[[[55.3067391,25.3009481],[55.3067291,25.3008766],[55.3067812,25.3008707],[55.3067912,25.3009421],[55.3067391,25.3009481]]]}},{"type":"Feature","properties":{"status":"existing","bHeight":12.0,"name":"","levels":""},"geometry":{"type":"Polygon","coordinates":[[[55.3068044,25.3009741],[55.3067979,25.3009254],[55.3068339,25.3009215],[55.3068404,25.3009702],[55.3068044,25.3009741]]]}},{"type":"Feature","properties":{"status":"existing","bHeight":12.0,"name":"","levels":""},"geometry":{"type":"Polygon","coordinates":[[[55.3058903,25.3010039],[55.3055731,25.3010454],[55.3055617,25.3009746],[55.3056269,25.3009648],[55.3056177,25.3009042],[55.305575,25.3009095],[55.3055678,25.3008619],[55.3055824,25.3008601],[55.3055758,25.3008159],[55.3058257,25.3007851],[55.3058496,25.3009437],[55.3058793,25.3009401],[55.3058903,25.3010039]]]}},{"type":"Feature","properties":{"status":"existing","bHeight":12.0,"name":"","levels":""},"geometry":{"type":"Polygon","coordinates":[[[55.305402,25.3008328],[55.3055356,25.3008175],[55.3055438,25.3008759],[55.3054102,25.3008913],[55.305402,25.3008328]]]}},{"type":"Feature","properties":{"status":"existing","bHeight":12.0,"name":"","levels":""},"geometry":{"type":"Polygon","coordinates":[[[55.3052159,25.3008585],[55.3053082,25.3008464],[55.3053172,25.3009025],[55.305225,25.3009146],[55.3052159,25.3008585]]]}},{"type":"Feature","properties":{"status":"existing","bHeight":12.0,"name":"","levels":""},"geometry":{"type":"Polygon","coordinates":[[[55.3055681,25.3007333],[55.3056501,25.3007215],[55.3056583,25.3007681],[55.3055763,25.3007798],[55.3055681,25.3007333]]]}},{"type":"Feature","properties":{"status":"existing","bHeight":12.0,"name":"","levels":""},"geometry":{"type":"Polygon","coordinates":[[[55.3055034,25.3007835],[55.3054879,25.3006884],[55.3053903,25.3007014],[55.3054058,25.3007965],[55.3055034,25.3007835]]]}},{"type":"Feature","properties":{"status":"existing","bHeight":12.0,"name":"","levels":""},"geometry":{"type":"Polygon","coordinates":[[[55.3052962,25.3005734],[55.3052386,25.3002135],[55.3050873,25.3002333],[55.305145,25.3005932],[55.3052962,25.3005734]]]}},{"type":"Feature","properties":{"status":"existing","bHeight":12.0,"name":"","levels":""},"geometry":{"type":"Polygon","coordinates":[[[55.3052069,25.3005954],[55.3052866,25.3005844],[55.3052974,25.3006479],[55.3052176,25.3006589],[55.3052069,25.3005954]]]}},{"type":"Feature","properties":{"status":"existing","bHeight":12.0,"name":"","levels":""},"geometry":{"type":"Polygon","coordinates":[[[55.3071944,25.3005814],[55.3072017,25.3006344],[55.3076311,25.3005863],[55.3075836,25.3002396],[55.3074724,25.300252],[55.3074745,25.3002677],[55.3071253,25.3003069],[55.3071477,25.3004703],[55.3071788,25.3004668],[55.3071944,25.3005814]]]}},{"type":"Feature","properties":{"status":"existing","bHeight":12.0,"name":"","levels":""},"geometry":{"type":"Polygon","coordinates":[[[55.3066399,25.3006465],[55.3065089,25.3006616],[55.3064967,25.3005753],[55.3062499,25.3006037],[55.3062219,25.3004045],[55.3062613,25.3004],[55.3062637,25.3004174],[55.3066174,25.3003768],[55.3066389,25.3005298],[55.3066243,25.3005351],[55.3066399,25.3006465]]]}},{"type":"Feature","properties":{"status":"existing","bHeight":12.0,"name":"","levels":""},"geometry":{"type":"Polygon","coordinates":[[[55.3070149,25.30049],[55.3069911,25.3003298],[55.3067621,25.3003576],[55.306786,25.3005179],[55.3070149,25.30049]]]}},{"type":"Feature","properties":{"status":"existing","bHeight":12.0,"name":"","levels":""},"geometry":{"type":"Polygon","coordinates":[[[55.3063577,25.3006805],[55.3064234,25.3006713],[55.3064306,25.3007134],[55.306365,25.3007226],[55.3063577,25.3006805]]]}},{"type":"Feature","properties":{"status":"existing","bHeight":12.0,"name":"","levels":""},"geometry":{"type":"Polygon","coordinates":[[[55.3067999,25.3002331],[55.3067822,25.3001042],[55.3067797,25.3000859],[55.3068822,25.3000744],[55.3068845,25.3000915],[55.3069024,25.3002217],[55.3067999,25.3002331]]]}},{"type":"Feature","properties":{"status":"existing","bHeight":12.0,"name":"","levels":""},"geometry":{"type":"Polygon","coordinates":[[[55.3151394,25.2932087],[55.3150955,25.293097],[55.3151325,25.2930851],[55.3151763,25.2931969],[55.3151394,25.2932087]]]}},{"type":"Feature","properties":{"status":"existing","bHeight":12.0,"name":"","levels":""},"geometry":{"type":"Polygon","coordinates":[[[55.304753,25.2961337],[55.3048683,25.2943827],[55.3038942,25.2941456],[55.3033553,25.2959435],[55.3044619,25.2962223],[55.304753,25.2961337]]]}},{"type":"Feature","properties":{"status":"existing","bHeight":12.0,"name":"","levels":""},"geometry":{"type":"Polygon","coordinates":[[[55.2969444,25.2966284],[55.2971287,25.2968662],[55.3000688,25.2975856],[55.3004059,25.2963968],[55.2985315,25.2959294],[55.2983671,25.2957193],[55.2969444,25.2966284]]]}},{"type":"Feature","properties":{"status":"existing","bHeight":12.0,"name":"","levels":""},"geometry":{"type":"Polygon","coordinates":[[[55.3036814,25.2987443],[55.3039177,25.2978819],[55.3033957,25.2977433],[55.3032361,25.2982513],[55.3031552,25.2983062],[55.3030113,25.2983468],[55.302854,25.298359],[55.3026786,25.2983225],[55.3025325,25.2982412],[55.3024179,25.2981294],[55.3023774,25.2980481],[55.3024404,25.297851],[55.3022471,25.297788],[55.3020315,25.2984415],[55.3018929,25.2989249],[55.3018919,25.2989443],[55.3020335,25.2989761],[55.3020178,25.2990276],[55.3022044,25.2990703],[55.3022516,25.2988976],[55.3023932,25.2989301],[55.3023864,25.2989849],[55.3026449,25.2989667],[55.3029933,25.2989179],[55.3033102,25.2988529],[55.3029708,25.2987716],[55.303063,25.2984098],[55.3031799,25.2984444],[55.3031889,25.29842],[55.3035058,25.2984952],[55.3034496,25.2987472],[55.3034204,25.2987777],[55.3034339,25.2988102],[55.3036814,25.2987443]]]}},{"type":"Feature","properties":{"status":"existing","bHeight":12.0,"name":"","levels":""},"geometry":{"type":"Polygon","coordinates":[[[55.3040425,25.297499],[55.3035165,25.297375],[55.3034603,25.2972531],[55.3033727,25.2971352],[55.3032558,25.2970539],[55.3031187,25.2970051],[55.3029973,25.2969909],[55.3028534,25.2970011],[55.302732,25.2970519],[55.3026399,25.2971189],[55.3025612,25.2973709],[55.3023724,25.2973283],[55.3026399,25.2964117],[55.303784,25.296682],[55.3038132,25.2967328],[55.3038761,25.2967857],[55.3039728,25.2968121],[55.304065,25.2967857],[55.3044313,25.296741],[55.3044853,25.2968222],[55.3045774,25.2968852],[55.3046763,25.2969178],[55.3048494,25.2969157],[55.3048202,25.2970173],[55.3048359,25.2971108],[55.3048719,25.2972145],[55.3041886,25.2970214],[55.3040425,25.297499]]]}},{"type":"Feature","properties":{"status":"existing","bHeight":12.0,"name":"","levels":""},"geometry":{"type":"Polygon","coordinates":[[[55.3036628,25.294284],[55.3031579,25.2960354],[55.3043728,25.2963049],[55.3047901,25.2961796],[55.3047725,25.2963809],[55.3046796,25.2963841],[55.3045622,25.2964206],[55.3044885,25.2964824],[55.3044289,25.2965632],[55.3041502,25.2965791],[55.3041028,25.2965172],[55.3040503,25.2964808],[55.3039854,25.2964634],[55.3039118,25.2964729],[55.3038486,25.296503],[55.3038013,25.2965347],[55.3037592,25.296484],[55.3037978,25.2964491],[55.3026951,25.2961923],[55.3028897,25.2955726],[55.3029283,25.2955662],[55.3030142,25.2955108],[55.303051,25.2954394],[55.3030492,25.2953681],[55.3030194,25.2953031],[55.3029931,25.2952635],[55.3031504,25.2947118],[55.3032368,25.2944085],[55.3032841,25.2942427],[55.3034121,25.294276],[55.3034261,25.2942253],[55.3036628,25.294284]]]}},{"type":"Feature","properties":{"status":"existing","bHeight":12.0,"name":"","levels":""},"geometry":{"type":"Polygon","coordinates":[[[55.3019897,25.290912],[55.3017838,25.2911969],[55.3014439,25.2909959],[55.3015069,25.2909089],[55.3015212,25.2909173],[55.3015776,25.2908394],[55.3015402,25.2908173],[55.3016268,25.2906975],[55.3019897,25.290912]]]}},{"type":"Feature","properties":{"status":"existing","bHeight":12.0,"name":"","levels":""},"geometry":{"type":"Polygon","coordinates":[[[55.3016721,25.2912773],[55.3013413,25.2911056],[55.3012958,25.2911773],[55.301325,25.2911925],[55.3013045,25.2912248],[55.301354,25.2912506],[55.3013727,25.2912213],[55.3014208,25.2912463],[55.3014393,25.2912172],[55.3015586,25.2912792],[55.3015442,25.2913019],[55.3016287,25.2913457],[55.3016721,25.2912773]]]}},{"type":"Feature","properties":{"status":"existing","bHeight":12.0,"name":"","levels":""},"geometry":{"type":"Polygon","coordinates":[[[55.3100476,25.2904232],[55.3100586,25.2904076],[55.3100935,25.2904275],[55.3100825,25.2904432],[55.3100476,25.2904232]]]}},{"type":"Feature","properties":{"status":"existing","bHeight":12.0,"name":"","levels":""},"geometry":{"type":"Polygon","coordinates":[[[55.3077777,25.2891496],[55.3078168,25.289092],[55.3078682,25.2891205],[55.3078291,25.2891781],[55.3077777,25.2891496]]]}},{"type":"Feature","properties":{"status":"existing","bHeight":12.0,"name":"","levels":""},"geometry":{"type":"Polygon","coordinates":[[[55.3078435,25.2891833],[55.3078657,25.2891477],[55.3079016,25.289166],[55.3078794,25.2892016],[55.3078435,25.2891833]]]}},{"type":"Feature","properties":{"status":"existing","bHeight":12.0,"name":"","levels":""},"geometry":{"type":"Polygon","coordinates":[[[55.3025993,25.2860978],[55.3023904,25.2859781],[55.3023407,25.2860491],[55.3025496,25.2861688],[55.3025993,25.2860978]]]}},{"type":"Feature","properties":{"status":"existing","bHeight":12.0,"name":"","levels":""},"geometry":{"type":"Polygon","coordinates":[[[55.3025836,25.2861947],[55.3026232,25.2862188],[55.3026491,25.286184],[55.3026095,25.2861599],[55.3025836,25.2861947]]]}},{"type":"Feature","properties":{"status":"existing","bHeight":12.0,"name":"","levels":""},"geometry":{"type":"Polygon","coordinates":[[[55.3022655,25.2859858],[55.3022902,25.2859491],[55.3022467,25.2859252],[55.302222,25.2859618],[55.3022655,25.2859858]]]}},{"type":"Feature","properties":{"status":"existing","bHeight":12.0,"name":"","levels":""},"geometry":{"type":"Polygon","coordinates":[[[55.30147,25.2854577],[55.3016735,25.2855781],[55.3016239,25.2856466],[55.3014204,25.2855262],[55.3014477,25.2854885],[55.30147,25.2854577]]]}},{"type":"Feature","properties":{"status":"existing","bHeight":12.0,"name":"","levels":""},"geometry":{"type":"Polygon","coordinates":[[[55.3016547,25.2856656],[55.301681,25.2856264],[55.3017215,25.2856487],[55.3016952,25.2856879],[55.3016547,25.2856656]]]}},{"type":"Feature","properties":{"status":"existing","bHeight":12.0,"name":"","levels":""},"geometry":{"type":"Polygon","coordinates":[[[55.3020022,25.2853515],[55.3021712,25.2853848],[55.3021394,25.2855173],[55.3019703,25.285484],[55.3020022,25.2853515]]]}},{"type":"Feature","properties":{"status":"existing","bHeight":12.0,"name":"","levels":""},"geometry":{"type":"Polygon","coordinates":[[[55.3020636,25.2851821],[55.3021656,25.2850353],[55.3022441,25.2850799],[55.3021421,25.2852267],[55.3020636,25.2851821]]]}},{"type":"Feature","properties":{"status":"existing","bHeight":12.0,"name":"","levels":""},"geometry":{"type":"Polygon","coordinates":[[[55.3023473,25.284136],[55.3023891,25.284077],[55.3024406,25.2841068],[55.3023988,25.2841658],[55.3023473,25.284136]]]}},{"type":"Feature","properties":{"status":"existing","bHeight":12.0,"name":"","levels":""},"geometry":{"type":"Polygon","coordinates":[[[55.3039041,25.2843221],[55.3037886,25.2844852],[55.3035317,25.2843365],[55.3036471,25.2841734],[55.3039041,25.2843221]]]}},{"type":"Feature","properties":{"status":"existing","bHeight":12.0,"name":"","levels":""},"geometry":{"type":"Polygon","coordinates":[[[55.3035864,25.2844702],[55.3037433,25.284564],[55.303697,25.2846272],[55.3035402,25.2845334],[55.3035864,25.2844702]]]}},{"type":"Feature","properties":{"status":"existing","bHeight":12.0,"name":"","levels":""},"geometry":{"type":"Polygon","coordinates":[[[55.3042993,25.2845246],[55.3041838,25.2846876],[55.3039269,25.2845389],[55.3040424,25.2843758],[55.3042993,25.2845246]]]}},{"type":"Feature","properties":{"status":"existing","bHeight":12.0,"name":"","levels":""},"geometry":{"type":"Polygon","coordinates":[[[55.3041569,25.2847495],[55.3041217,25.2847984],[55.3040675,25.2847665],[55.3041027,25.2847176],[55.3041569,25.2847495]]]}},{"type":"Feature","properties":{"status":"existing","bHeight":12.0,"name":"","levels":""},"geometry":{"type":"Polygon","coordinates":[[[55.3044253,25.2849848],[55.3044595,25.2849368],[55.3045078,25.2849649],[55.3044736,25.2850129],[55.3044253,25.2849848]]]}},{"type":"Feature","properties":{"status":"existing","bHeight":12.0,"name":"","levels":""},"geometry":{"type":"Polygon","coordinates":[[[55.3051191,25.2863091],[55.3052209,25.2861657],[55.3053021,25.2862129],[55.3052003,25.2863563],[55.3051191,25.2863091]]]}},{"type":"Feature","properties":{"status":"existing","bHeight":12.0,"name":"","levels":""},"geometry":{"type":"Polygon","coordinates":[[[55.3149819,25.2939263],[55.3150504,25.2938663],[55.3150873,25.2939007],[55.3150188,25.2939608],[55.3149819,25.2939263]]]}},{"type":"Feature","properties":{"status":"existing","bHeight":12.0,"name":"","levels":""},"geometry":{"type":"Polygon","coordinates":[[[55.3153231,25.2937606],[55.3153181,25.2937687],[55.3153164,25.2937778],[55.3153183,25.2937869],[55.3153234,25.2937949],[55.3153312,25.2938009],[55.3153408,25.2938041],[55.3153503,25.2938043],[55.3153594,25.2938018],[55.3153671,25.2937968],[55.3153728,25.2937899],[55.3153757,25.2937817],[55.3153756,25.2937731],[55.3153726,25.293765],[55.3153668,25.2937582],[55.315359,25.2937533],[55.3153499,25.2937509],[55.3153404,25.2937512],[55.3153309,25.2937545],[55.3153231,25.2937606]]]}},{"type":"Feature","properties":{"status":"existing","bHeight":12.0,"name":"","levels":""},"geometry":{"type":"Polygon","coordinates":[[[55.3151255,25.2947529],[55.3151167,25.2947585],[55.3151104,25.2947665],[55.3151075,25.2947759],[55.3151083,25.2947857],[55.3151126,25.2947946],[55.31512,25.2948018],[55.3151296,25.2948063],[55.3151396,25.2948076],[55.3151497,25.294806],[55.3151586,25.2948017],[55.3151656,25.294795],[55.3151699,25.2947866],[55.315171,25.2947774],[55.3151689,25.2947684],[55.3151637,25.2947605],[55.3151561,25.2947544],[55.3151467,25.2947508],[55.3151359,25.2947502],[55.3151255,25.2947529]]]}},{"type":"Feature","properties":{"status":"existing","bHeight":12.0,"name":"","levels":""},"geometry":{"type":"Polygon","coordinates":[[[55.315822,25.2959948],[55.315815,25.2960023],[55.3158111,25.2960114],[55.3158108,25.2960212],[55.3158141,25.2960305],[55.3158207,25.2960383],[55.3158298,25.2960436],[55.3158404,25.2960459],[55.3158505,25.2960449],[55.3158598,25.2960412],[55.3158674,25.2960349],[55.3158723,25.2960269],[55.3158742,25.2960178],[55.3158729,25.2960087],[55.3158684,25.2960004],[55.3158612,25.2959938],[55.3158522,25.2959896],[55.3158421,25.2959882],[55.3158314,25.29599],[55.315822,25.2959948]]]}},{"type":"Feature","properties":{"status":"existing","bHeight":12.0,"name":"","levels":""},"geometry":{"type":"Polygon","coordinates":[[[55.3162917,25.2960523],[55.3162646,25.2959671],[55.3164851,25.2959098],[55.3165122,25.295995],[55.3162917,25.2960523]]]}},{"type":"Feature","properties":{"status":"existing","bHeight":12.0,"name":"","levels":""},"geometry":{"type":"Polygon","coordinates":[[[55.3167737,25.2956833],[55.3168462,25.2956238],[55.3169055,25.2956829],[55.3168869,25.2956981],[55.3169943,25.2958053],[55.3169073,25.2958765],[55.3168549,25.2958242],[55.3168879,25.2957972],[55.3167737,25.2956833]]]}},{"type":"Feature","properties":{"status":"existing","bHeight":12.0,"name":"","levels":""},"geometry":{"type":"Polygon","coordinates":[[[55.3171535,25.2957432],[55.3171512,25.2957539],[55.3171528,25.2957647],[55.3171581,25.2957745],[55.3171665,25.2957823],[55.3171771,25.2957873],[55.317189,25.295789],[55.3172009,25.2957872],[55.3172121,25.2957818],[55.3172207,25.2957732],[55.3172257,25.2957626],[55.3172264,25.295751],[55.3172229,25.2957399],[55.3172154,25.2957306],[55.3172049,25.295724],[55.3171926,25.2957209],[55.3171799,25.2957218],[55.3171682,25.2957264],[55.3171593,25.2957337],[55.3171535,25.2957432]]]}},{"type":"Feature","properties":{"status":"existing","bHeight":12.0,"name":"","levels":""},"geometry":{"type":"Polygon","coordinates":[[[55.3164463,25.2944449],[55.3162439,25.2942024],[55.3161376,25.2942749],[55.3160707,25.2941947],[55.3161672,25.294129],[55.3159726,25.2938954],[55.3158117,25.2940036],[55.3158171,25.2940084],[55.3158262,25.2940244],[55.3158289,25.2940429],[55.3158244,25.2940611],[55.3158133,25.2940769],[55.315797,25.2940883],[55.3157773,25.294094],[55.3157588,25.2940936],[55.3157538,25.2940921],[55.3157412,25.2940882],[55.3157264,25.2940781],[55.3157191,25.2940688],[55.3156359,25.2941245],[55.3156491,25.2941404],[55.3155709,25.2941933],[55.315616,25.2942477],[55.3156028,25.2942567],[55.3157261,25.2944064],[55.3157539,25.2943878],[55.3157849,25.294407],[55.3158492,25.2943628],[55.3159133,25.2944392],[55.315833,25.2944942],[55.3158907,25.294563],[55.315857,25.2945861],[55.315964,25.2947138],[55.3159981,25.2946905],[55.3160301,25.2947289],[55.3161703,25.2946332],[55.3162326,25.294714],[55.3163962,25.2945629],[55.3163534,25.2945083],[55.3164463,25.2944449]]]}},{"type":"Feature","properties":{"status":"existing","bHeight":12.0,"name":"","levels":""},"geometry":{"type":"Polygon","coordinates":[[[55.3157162,25.2940157],[55.3157103,25.2940316],[55.3157101,25.2940484],[55.3157157,25.2940644],[55.3157191,25.2940688],[55.3157264,25.2940781],[55.3157412,25.2940882],[55.3157538,25.2940921],[55.3157588,25.2940936],[55.3157773,25.294094],[55.315797,25.2940883],[55.3158133,25.2940769],[55.3158244,25.2940611],[55.3158289,25.2940429],[55.3158262,25.2940244],[55.3158171,25.2940084],[55.3158117,25.2940036],[55.3158016,25.2939951],[55.3157826,25.2939878],[55.3157619,25.2939869],[55.3157422,25.2939923],[55.3157271,25.2940022],[55.3157162,25.2940157]]]}},{"type":"Feature","properties":{"status":"existing","bHeight":12.0,"name":"","levels":""},"geometry":{"type":"Polygon","coordinates":[[[55.3172102,25.2950513],[55.3170767,25.2949409],[55.3170083,25.2950086],[55.3169668,25.2949743],[55.3169325,25.2950083],[55.3168332,25.2949263],[55.3168578,25.2949019],[55.3168249,25.2948748],[55.3168993,25.2948011],[55.3167637,25.2946893],[55.316707,25.2947455],[55.3166598,25.2947096],[55.3166006,25.2947747],[55.3164239,25.2949382],[55.3163858,25.2949656],[55.316434,25.2950057],[55.3163466,25.2950923],[55.3165099,25.2952269],[55.3165768,25.2951606],[55.3166164,25.2951932],[55.3166791,25.2951311],[55.3167503,25.2951899],[55.3167082,25.2952315],[55.3167597,25.2952741],[55.3166893,25.2953437],[55.3168215,25.2954531],[55.3168952,25.2953802],[55.3169296,25.2954086],[55.3169635,25.2953751],[55.3169961,25.2954021],[55.3170458,25.2953503],[55.3170359,25.2953428],[55.3170293,25.2953327],[55.3170266,25.2953213],[55.3170281,25.2953097],[55.3170336,25.2952991],[55.3170426,25.2952907],[55.3170544,25.2952854],[55.3170674,25.2952838],[55.3170802,25.2952861],[55.3170915,25.2952921],[55.3171,25.2953011],[55.3171833,25.2952173],[55.3171373,25.2951793],[55.3171737,25.2951434],[55.3171428,25.2951178],[55.3172102,25.2950513]]]}},{"type":"Feature","properties":{"status":"existing","bHeight":12.0,"name":"","levels":""},"geometry":{"type":"Polygon","coordinates":[[[55.3170281,25.2953097],[55.3170266,25.2953213],[55.3170293,25.2953327],[55.3170359,25.2953428],[55.3170458,25.2953503],[55.3170579,25.2953546],[55.3170708,25.2953551],[55.3170832,25.2953518],[55.3170939,25.295345],[55.3171016,25.2953354],[55.3171054,25.295324],[55.3171048,25.2953122],[55.3171,25.2953011],[55.3170915,25.2952921],[55.3170802,25.2952861],[55.3170674,25.2952838],[55.3170544,25.2952854],[55.3170426,25.2952907],[55.3170336,25.2952991],[55.3170281,25.2953097]]]}},{"type":"Feature","properties":{"status":"existing","bHeight":12.0,"name":"","levels":""},"geometry":{"type":"Polygon","coordinates":[[[55.3162781,25.2950431],[55.3163858,25.2949656],[55.3164239,25.2949382],[55.3166006,25.2947747],[55.3166598,25.2947096],[55.3167578,25.2946019],[55.3168297,25.2945016],[55.3166129,25.2942936],[55.3164979,25.2944422],[55.3163962,25.2945629],[55.3162411,25.2947078],[55.3162326,25.294714],[55.3160983,25.2948118],[55.3160212,25.2948519],[55.3158713,25.2949298],[55.3160808,25.2951406],[55.3162365,25.2950632],[55.3162781,25.2950431]]]}},{"type":"Feature","properties":{"status":"existing","bHeight":12.0,"name":"","levels":""},"geometry":{"type":"Polygon","coordinates":[[[55.3184984,25.299392],[55.3183101,25.2989392],[55.3193043,25.2986012],[55.3193376,25.2986813],[55.3194175,25.2986541],[55.3195726,25.2990269],[55.3184984,25.299392]]]}},{"type":"Feature","properties":{"status":"existing","bHeight":12.0,"name":"","levels":""},"geometry":{"type":"Polygon","coordinates":[[[55.3170071,25.2985712],[55.3170759,25.2985415],[55.3171529,25.298687],[55.3170841,25.2987168],[55.3170071,25.2985712]]]}},{"type":"Feature","properties":{"status":"existing","bHeight":12.0,"name":"","levels":""},"geometry":{"type":"Polygon","coordinates":[[[55.3176895,25.2989467],[55.3173846,25.2990578],[55.3173625,25.2990083],[55.3176674,25.2988973],[55.3176895,25.2989467]]]}},{"type":"Feature","properties":{"status":"existing","bHeight":12.0,"name":"","levels":""},"geometry":{"type":"Polygon","coordinates":[[[55.3027945,25.295475],[55.3026606,25.2958934],[55.3025727,25.295985],[55.3024159,25.2959366],[55.3023642,25.296042],[55.3021749,25.2959539],[55.3019244,25.2958899],[55.3016281,25.2958242],[55.3014713,25.2958069],[55.3014866,25.2957585],[55.3013068,25.2957136],[55.301456,25.2951638],[55.3015114,25.295131],[55.3016434,25.2951552],[55.3017218,25.2952001],[55.3018919,25.2952693],[55.3020162,25.295309],[55.3021941,25.2953574],[55.3023795,25.2953799],[55.3025344,25.2953816],[55.3027008,25.2953989],[55.3027734,25.2954179],[55.3027945,25.295475]]]}},{"type":"Feature","properties":{"status":"existing","bHeight":12.0,"name":"","levels":""},"geometry":{"type":"Polygon","coordinates":[[[55.3030469,25.2946832],[55.3028729,25.2952209],[55.3028021,25.2952641],[55.3026281,25.2952088],[55.3024923,25.29515],[55.3022763,25.2950877],[55.3020698,25.2950532],[55.3018001,25.2950238],[55.301672,25.2950151],[55.301565,25.2949875],[55.3015152,25.2949304],[55.3016759,25.2943807],[55.3017791,25.2944101],[55.3018327,25.2942354],[55.3029723,25.2945086],[55.3030029,25.2944239],[55.3025344,25.2943063],[55.3025471,25.2942688],[55.3022708,25.2942046],[55.3022572,25.2942562],[55.3018518,25.2941542],[55.3019321,25.2939277],[55.3020079,25.2939474],[55.3020334,25.2938707],[55.3022574,25.2939331],[55.3022423,25.2939917],[55.3023929,25.294028],[55.3024139,25.2939588],[55.3026161,25.2940163],[55.302609,25.2940505],[55.3027161,25.2940747],[55.3027371,25.294009],[55.3030263,25.2940945],[55.3030095,25.2941399],[55.3031253,25.2941767],[55.3030583,25.2943495],[55.3032368,25.2944085],[55.3031504,25.2947118],[55.3030469,25.2946832]]]}},{"type":"Feature","properties":{"status":"existing","bHeight":12.0,"name":"","levels":""},"geometry":{"type":"Polygon","coordinates":[[[55.3023585,25.2969643],[55.3024602,25.2966198],[55.3022372,25.2965571],[55.3022719,25.296471],[55.3020597,25.296471],[55.3018388,25.2964319],[55.3016418,25.2963712],[55.3013603,25.296242],[55.3013235,25.296332],[55.3011438,25.2962772],[55.3008948,25.2970504],[55.3009338,25.2970896],[55.3010594,25.2971346],[55.3012023,25.2971503],[55.3014101,25.2971718],[55.3016266,25.2972188],[55.3017609,25.2972579],[55.3018627,25.2972971],[55.3019709,25.2969428],[55.3020813,25.2969741],[55.302103,25.2969134],[55.3023585,25.2969643]]]}},{"type":"Feature","properties":{"status":"existing","bHeight":12.0,"name":"","levels":""},"geometry":{"type":"Polygon","coordinates":[[[55.2999886,25.2846117],[55.3001846,25.2847275],[55.3001346,25.2847966],[55.2999386,25.2846808],[55.2999718,25.2846349],[55.2999886,25.2846117]]]}},{"type":"Feature","properties":{"status":"existing","bHeight":12.0,"name":"","levels":""},"geometry":{"type":"Polygon","coordinates":[[[55.2989746,25.2840337],[55.2991801,25.2841532],[55.2991286,25.2842254],[55.2989231,25.284106],[55.2989746,25.2840337]]]}},{"type":"Feature","properties":{"status":"existing","bHeight":12.0,"name":"","levels":""},"geometry":{"type":"Polygon","coordinates":[[[55.299677,25.2844365],[55.2994449,25.2843051],[55.299393,25.28438],[55.2996251,25.2845115],[55.2996646,25.2844544],[55.299677,25.2844365]]]}},{"type":"Feature","properties":{"status":"existing","bHeight":12.0,"name":"","levels":""},"geometry":{"type":"Polygon","coordinates":[[[55.3001876,25.2848312],[55.3002168,25.2847895],[55.3002236,25.2847797],[55.3002725,25.2848076],[55.3002365,25.2848591],[55.3001876,25.2848312]]]}},{"type":"Feature","properties":{"status":"existing","bHeight":12.0,"name":"","levels":""},"geometry":{"type":"Polygon","coordinates":[[[55.2992305,25.2842871],[55.2992597,25.2842453],[55.2992665,25.2842355],[55.2993154,25.2842635],[55.2992794,25.284315],[55.2992305,25.2842871]]]}},{"type":"Feature","properties":{"status":"existing","bHeight":12.0,"name":"","levels":""},"geometry":{"type":"Polygon","coordinates":[[[55.298821,25.284053],[55.2988467,25.2840159],[55.2988534,25.2840062],[55.2989026,25.2840341],[55.2988702,25.2840809],[55.298821,25.284053]]]}},{"type":"Feature","properties":{"status":"existing","bHeight":12.0,"name":"","levels":""},"geometry":{"type":"Polygon","coordinates":[[[55.2984084,25.2834063],[55.2982419,25.2833137],[55.2981913,25.2833881],[55.2983578,25.2834806],[55.2984084,25.2834063]]]}},{"type":"Feature","properties":{"status":"existing","bHeight":12.0,"name":"","levels":""},"geometry":{"type":"Polygon","coordinates":[[[55.2983142,25.282383],[55.2982759,25.2824442],[55.2982179,25.2824145],[55.2982562,25.2823533],[55.2983142,25.282383]]]}},{"type":"Feature","properties":{"status":"existing","bHeight":12.0,"name":"","levels":""},"geometry":{"type":"Polygon","coordinates":[[[55.3069386,25.2864249],[55.3068721,25.2865192],[55.3069293,25.2865521],[55.3069957,25.2864577],[55.3069386,25.2864249]]]}},{"type":"Feature","properties":{"status":"existing","bHeight":12.0,"name":"","levels":""},"geometry":{"type":"Polygon","coordinates":[[[55.3074062,25.2866522],[55.3073754,25.2866977],[55.3074244,25.2867248],[55.3074552,25.2866793],[55.3074062,25.2866522]]]}},{"type":"Feature","properties":{"status":"existing","bHeight":12.0,"name":"","levels":""},"geometry":{"type":"Polygon","coordinates":[[[55.3020315,25.2984415],[55.3019867,25.298431],[55.3019194,25.2984152],[55.3020161,25.2980776],[55.3016765,25.2979981],[55.3015458,25.2984543],[55.3017854,25.2985104],[55.3017574,25.2986084],[55.3006269,25.2983438],[55.3005517,25.2986066],[55.3006082,25.2986198],[55.3005936,25.2986707],[55.3008885,25.2987398],[55.3009016,25.2986943],[55.3013286,25.2987944],[55.3013129,25.2988491],[55.3015995,25.2989163],[55.3016156,25.29886],[55.3018424,25.2989131],[55.3018929,25.2989249],[55.3020315,25.2984415]]]}},{"type":"Feature","properties":{"status":"existing","bHeight":12.0,"name":"","levels":""},"geometry":{"type":"Polygon","coordinates":[[[55.3006001,25.2980739],[55.3006864,25.2977551],[55.3009398,25.2978112],[55.3009267,25.2978592],[55.3016091,25.2980104],[55.3014902,25.2984489],[55.3006485,25.2982624],[55.3006939,25.2980947],[55.3006001,25.2980739]]]}},{"type":"Feature","properties":{"status":"existing","bHeight":12.0,"name":"","levels":""},"geometry":{"type":"Polygon","coordinates":[[[55.3010743,25.2957653],[55.2996197,25.295427],[55.299287,25.295301],[55.2992775,25.2952339],[55.2992487,25.295146],[55.2991954,25.295057],[55.2992459,25.2948931],[55.3002499,25.2951458],[55.3007362,25.2935663],[55.3015454,25.29377],[55.3015306,25.2938181],[55.3016711,25.2938533],[55.3015999,25.2940855],[55.3014276,25.2940423],[55.3013375,25.2943362],[55.3015028,25.2943776],[55.3013533,25.2948657],[55.3012585,25.2949166],[55.3011907,25.2949956],[55.3011796,25.2950827],[55.3012106,25.2951501],[55.3012585,25.2952083],[55.3010743,25.2957653]]]}},{"type":"Feature","properties":{"status":"existing","bHeight":12.0,"name":"","levels":""},"geometry":{"type":"Polygon","coordinates":[[[55.3002949,25.2888801],[55.3003216,25.2888941],[55.3003417,25.2888628],[55.300315,25.2888488],[55.3002949,25.2888801]]]}},{"type":"Feature","properties":{"status":"existing","bHeight":12.0,"name":"","levels":""},"geometry":{"type":"Polygon","coordinates":[[[55.3001086,25.2887712],[55.3001545,25.2887979],[55.3001844,25.2887559],[55.3001385,25.2887292],[55.3001086,25.2887712]]]}},{"type":"Feature","properties":{"status":"existing","bHeight":12.0,"name":"","levels":""},"geometry":{"type":"Polygon","coordinates":[[[55.3251048,25.3181283],[55.3252804,25.3180844],[55.3252614,25.3180223],[55.3250858,25.3180663],[55.3251048,25.3181283]]]}},{"type":"Feature","properties":{"status":"existing","bHeight":12.0,"name":"","levels":""},"geometry":{"type":"Polygon","coordinates":[[[55.3251869,25.3175916],[55.3252368,25.31758],[55.3252292,25.3175533],[55.3251792,25.317565],[55.3251869,25.3175916]]]}},{"type":"Feature","properties":{"status":"existing","bHeight":12.0,"name":"","levels":""},"geometry":{"type":"Polygon","coordinates":[[[55.3246836,25.3171378],[55.3247213,25.317127],[55.3248373,25.3170934],[55.3247914,25.3169635],[55.3246377,25.3170079],[55.3246836,25.3171378]]]}},{"type":"Feature","properties":{"status":"existing","bHeight":12.0,"name":"","levels":""},"geometry":{"type":"Polygon","coordinates":[[[55.3248151,25.3173905],[55.3248701,25.3173906],[55.3248703,25.3173318],[55.3248153,25.3173317],[55.3248151,25.3173905]]]}},{"type":"Feature","properties":{"status":"existing","bHeight":12.0,"name":"","levels":""},"geometry":{"type":"Polygon","coordinates":[[[55.3247922,25.3173278],[55.3249083,25.3172943],[55.3248373,25.3170934],[55.3247213,25.317127],[55.3247922,25.3173278]]]}},{"type":"Feature","properties":{"status":"existing","bHeight":12.0,"name":"","levels":""},"geometry":{"type":"Polygon","coordinates":[[[55.3275592,25.3174357],[55.327592,25.3174339],[55.3275899,25.3174031],[55.3275571,25.3174049],[55.3275592,25.3174357]]]}},{"type":"Feature","properties":{"status":"existing","bHeight":12.0,"name":"","levels":""},"geometry":{"type":"Polygon","coordinates":[[[55.2934605,25.2849685],[55.2935218,25.2847748],[55.2936362,25.2848044],[55.2935749,25.2849981],[55.2934605,25.2849685]]]}},{"type":"Feature","properties":{"status":"existing","bHeight":12.0,"name":"","levels":""},"geometry":{"type":"Polygon","coordinates":[[[55.2936338,25.2844465],[55.2935839,25.2845992],[55.2936714,25.2846226],[55.2937213,25.2844699],[55.2936338,25.2844465]]]}},{"type":"Feature","properties":{"status":"existing","bHeight":12.0,"name":"","levels":""},"geometry":{"type":"Polygon","coordinates":[[[55.2929446,25.2840677],[55.2929751,25.2840747],[55.2929852,25.2840388],[55.2929547,25.2840318],[55.2929446,25.2840677]]]}},{"type":"Feature","properties":{"status":"existing","bHeight":12.0,"name":"","levels":""},"geometry":{"type":"Polygon","coordinates":[[[55.2936437,25.2844177],[55.2936795,25.2843171],[55.2937604,25.2843406],[55.2937246,25.2844412],[55.2936437,25.2844177]]]}},{"type":"Feature","properties":{"status":"existing","bHeight":12.0,"name":"","levels":""},"geometry":{"type":"Polygon","coordinates":[[[55.2292964,25.3545696],[55.2292341,25.3545584],[55.2292279,25.3545864],[55.2292902,25.3545977],[55.2292964,25.3545696]]]}},{"type":"Feature","properties":{"status":"existing","bHeight":12.0,"name":"","levels":""},"geometry":{"type":"Polygon","coordinates":[[[55.229569,25.3544575],[55.2294744,25.3544385],[55.2294651,25.3544723],[55.2295585,25.3544902],[55.229569,25.3544575]]]}},{"type":"Feature","properties":{"status":"existing","bHeight":12.0,"name":"","levels":""},"geometry":{"type":"Polygon","coordinates":[[[55.2295861,25.3546479],[55.2295963,25.3545994],[55.2294889,25.3545811],[55.2294788,25.3546297],[55.2295861,25.3546479]]]}},{"type":"Feature","properties":{"status":"existing","bHeight":12.0,"name":"","levels":""},"geometry":{"type":"Polygon","coordinates":[[[55.229468,25.3542307],[55.2294513,25.3541923],[55.2294091,25.3541906],[55.2293752,25.3542267],[55.2293962,25.3542644],[55.2294429,25.3542644],[55.229468,25.3542307]]]}}]}