<?xml version="1.0" encoding="UTF-8"?>

<kml xmlns:xsd="http://www.w3.org/2001/XMLSchema" xmlns:gx="http://www.google.com/kml/ext/2.2" xmlns:atom="http://www.w3.org/2005/Atom" xmlns="http://www.opengis.net/kml/2.2">
<Document>
<name>Community_20260815</name>
<Placemark id="kml_70">
<name>kml_70</name>
<snippet> </snippet>
<description><![CDATA[<center><table><tr><th colspan='2' align='center'><em>Attributes</em></th></tr><tr bgcolor="#E3E3F3">
<th>OBJECTID</th>
<td>47</td>
</tr><tr bgcolor="">
<th>CNAME_E</th>
<td>NADD AL SHIBA FIRST</td>
</tr><tr bgcolor="#E3E3F3">
<th>CNAME_A</th>
<td>ند الشبا الأولى</td>
</tr><tr bgcolor="">
<th>LABEL_E</th>
<td>NADD AL SHIBA FIRST</td>
</tr><tr bgcolor="#E3E3F3">
<th>LABEL_A</th>
<td>ند الشبا الأولى</td>
</tr><tr bgcolor="">
<th>C_PREFIX_E</th>
<td>Community:</td>
</tr><tr bgcolor="#E3E3F3">
<th>C_PREFIX_A</th>
<td>:???????</td>
</tr><tr bgcolor="">
<th>COMMUNITY_E</th>
<td>NADD AL SHIBA FIRST - 618</td>
</tr><tr bgcolor="#E3E3F3">
<th>COMMUNITY_A</th>
<td>ند الشبا الأولى - 618</td>
</tr><tr bgcolor="">
<th>DGIS_ID</th>
<td>0000235</td>
</tr><tr bgcolor="#E3E3F3">
<th>COMM_NUM</th>
<td>618</td>
</tr><tr bgcolor="">
<th>NDGIS_ID</th>
<td>235</td>
</tr></table></center>]]></description>
<ExtendedData>
<SchemaData schemaUrl="doc.kml#kml_schema_ft_DMGISNET.COMMUNITY_20260815121545.2149188">
<SimpleData name="OBJECTID">47</SimpleData>
<SimpleData name="CNAME_E">NADD AL SHIBA FIRST</SimpleData>
<SimpleData name="CNAME_A">ند الشبا الأولى</SimpleData>
<SimpleData name="LABEL_E">NADD AL SHIBA FIRST</SimpleData>
<SimpleData name="LABEL_A">ند الشبا الأولى</SimpleData>
<SimpleData name="C_PREFIX_E">Community:</SimpleData>
<SimpleData name="C_PREFIX_A">:???????</SimpleData>
<SimpleData name="COMMUNITY_E">NADD AL SHIBA FIRST - 618</SimpleData>
<SimpleData name="COMMUNITY_A">ند الشبا الأولى - 618</SimpleData>
<SimpleData name="DGIS_ID">0000235</SimpleData>
<SimpleData name="COMM_NUM">618</SimpleData>
<SimpleData name="NDGIS_ID">235</SimpleData>
</SchemaData>
</ExtendedData>
<Polygon>
<outerBoundaryIs>
<LinearRing>
<coordinates>55.3031542867258,25.1280727792235,0.0 55.3028409794608,25.127894416431,0.0 55.3003991870339,25.1265042818235,0.0 55.2994176685052,25.125954819949,0.0 55.2985091392267,25.1254092053214,0.0 55.2972464942503,25.1248169363498,0.0 55.2964985528229,25.1245294633272,0.0 55.2952746293262,25.1307504909118,0.0 55.2942370250937,25.1307546803135,0.0 55.2932282644083,25.1307687010096,0.0 55.2806198361068,25.1273435877585,0.0 55.2810628095827,25.129719843909,0.0 55.2810809243571,25.1298185820923,0.0 55.2810984738835,25.1299174284007,0.0 55.281115458172,25.1300163557524,0.0 55.2811318772173,25.130115373175,0.0 55.2811477211019,25.1302144806652,0.0 55.2811630096647,25.1303136601755,0.0 55.2811777131554,25.1304129116955,0.0 55.2811918514014,25.1305122442598,0.0 55.2812054244129,25.1306116307865,0.0 55.2812184222645,25.130711089327,0.0 55.2812308548789,25.1308106018302,0.0 55.2812427024219,25.1309101682893,0.0 55.281253984725,25.1310097887114,0.0 55.2812646918741,25.1311094540659,0.0 55.2812683161181,25.131145041027,0.0 55.2815242837434,25.1323799413568,0.0 55.2815323590018,25.1324193754983,0.0 55.2815402557561,25.1324588366588,0.0 55.2815479739988,25.1324983428928,0.0 55.281555493904,25.1325378761388,0.0 55.281562835301,25.1325774454312,0.0 55.2815699981895,25.1326170507699,0.0 55.2815769726567,25.1326566831243,0.0 55.2815837586985,25.1326963515215,0.0 55.281590366239,25.1327360379105,0.0 55.2815967853538,25.1327757603425,0.0 55.2816030160465,25.1328155097902,0.0 55.2816090682373,25.1328552772298,0.0 55.2816149220892,25.1328950716816,0.0 55.2816206073515,25.1329348931561,0.0 55.2816260942784,25.1329747326157,0.0 55.2816313927823,25.133014599091,0.0 55.2816365127834,25.1330544835582,0.0 55.281641444365,25.133094386014,0.0 55.2816461875269,25.1331343064583,0.0 55.2816507422689,25.1331742448912,0.0 55.2816551085909,25.1332142013127,0.0 55.2816592964131,25.1332541666988,0.0 55.2816632858982,25.1332941500702,0.0 55.2816670968831,25.1333341424063,0.0 55.2816707194472,25.133374152731,0.0 55.281674153598,25.1334141629897,0.0 55.2816773993276,25.1334541912371,0.0 55.2816804566396,25.1334942284459,0.0 55.2816833255378,25.1335342655887,0.0 55.281686006018,25.1335743116929,0.0 55.2816885079968,25.1336143667619,0.0 55.2816908116445,25.1336544217615,0.0 55.2817817409922,25.1352991217089,0.0 55.2821155193129,25.1391273768911,0.0 55.2822181239064,25.1392166653216,0.0 55.2830302519703,25.1399233752536,0.0 55.2883644542228,25.1400892699215,0.0 55.2900750161012,25.1401427875782,0.0 55.2905762798194,25.1401583675233,0.0 55.2880591483998,25.1467472286526,0.0 55.2876875499976,25.1473131082212,0.0 55.2876874506994,25.1473134331733,0.0 55.2876860706998,25.1473172874047,0.0 55.2876746037905,25.1473493217543,0.0 55.2867330374093,25.150445752461,0.0 55.2862249609432,25.150671662283,0.0 55.2862310080954,25.1506790485332,0.0 55.2853553833443,25.1508644589343,0.0 55.2842963464812,25.1524770185937,0.0 55.2845100399237,25.1527342857727,0.0 55.2847329012624,25.1529850289122,0.0 55.2852051561436,25.1534658683451,0.0 55.2856853792517,25.1538952442249,0.0 55.2864163595049,25.1544565688315,0.0 55.2876076477599,25.1552308600071,0.0 55.287980336646,25.1547592806747,0.0 55.2887045427185,25.1541364912711,0.0 55.2910311400745,25.1556208543317,0.0 55.291108308153,25.1556702736795,0.0 55.2911852778323,25.1557199637491,0.0 55.2917067512707,25.1558293865762,0.0 55.2928647101357,25.1556428336219,0.0 55.2932000759412,25.1562358462406,0.0 55.2931037107195,25.1562582799876,0.0 55.2929769014426,25.1562936234282,0.0 55.2928520442677,25.1563343114483,0.0 55.2927294070091,25.1563802538533,0.0 55.2926392948727,25.1564185860662,0.0 55.292579904038,25.1564454078619,0.0 55.2925564701304,25.1566737105519,0.0 55.2927715090717,25.1568358365046,0.0 55.2929845939317,25.1570000920495,0.0 55.2931956850454,25.1571664591295,0.0 55.2934047725028,25.1573349196959,0.0 55.2936118265625,25.1575054376397,0.0 55.2938168075549,25.1576780039316,0.0 55.2940197154786,25.1578526276072,0.0 55.2942205106835,25.1580292364463,0.0 55.2944191733331,25.1582078304519,0.0 55.2944683553798,25.158253024935,0.0 55.2946156637587,25.1583883915677,0.0 55.29643560196,25.1600790618779,0.0 55.2968812038366,25.1601091789355,0.0 55.2973711075402,25.1605642647982,0.0 55.2973420002355,25.1609210430408,0.0 55.3005227180279,25.1638756077782,0.0 55.3007537515326,25.1638074486711,0.0 55.3013793208467,25.1644431596314,0.0 55.3015007515797,25.1647840558348,0.0 55.3024532834194,25.1656687863826,0.0 55.3027493146703,25.1655817707123,0.0 55.3034353419772,25.1656866362875,0.0 55.30385599932,25.1668718576525,0.0 55.3046900797303,25.167745726248,0.0 55.304802997528,25.1678506991519,0.0 55.3048238735439,25.1678693083873,0.0 55.3049182966818,25.1679534968522,0.0 55.3050359772041,25.1680540651797,0.0 55.3051559299911,25.1681523589718,0.0 55.3052781252915,25.1682483421082,0.0 55.3054025135167,25.1683419694378,0.0 55.3055290351582,25.1684331958075,0.0 55.3056576307026,25.1685219941191,0.0 55.3057882505638,25.168608301167,0.0 55.3059208253038,25.168692107906,0.0 55.3060553152545,25.1687733511324,0.0 55.3061916410616,25.168852003745,0.0 55.3063297531265,25.168928047675,0.0 55.3064696018581,25.1690014287449,0.0 55.3066110880612,25.1690721198501,0.0 55.3097466384833,25.1699184178701,0.0 55.3099195833963,25.1699330604795,0.0 55.3100927967439,25.169944723929,0.0 55.3102662189979,25.1699533991812,0.0 55.3104397906282,25.169959086226,0.0 55.3106134521047,25.1699617850539,0.0 55.3107871438989,25.1699614866281,0.0 55.3109607866398,25.1699581999639,0.0 55.3127894481025,25.1699110899109,0.0 55.3129640432013,25.1699065823471,0.0 55.3135528342979,25.1699977744577,0.0 55.3137336041935,25.1700257649931,0.0 55.31390839281,25.1700528337412,0.0 55.3204437110728,25.1704267435279,0.0 55.324034554857,25.1706383591442,0.0 55.3242254366831,25.1703928021213,0.0 55.3242842556309,25.1703171391298,0.0 55.3245269313865,25.1700049545626,0.0 55.3248008255337,25.1696526000201,0.0 55.32537620685,25.1689214228809,0.0 55.3259515818463,25.1681812161563,0.0 55.326536869766,25.1674319712722,0.0 55.3271221505314,25.1666827420515,0.0 55.3277074237299,25.1659425286904,0.0 55.3282926902334,25.1651932766343,0.0 55.3288680205367,25.1644440399431,0.0 55.3294532827151,25.163694792173,0.0 55.3306237657791,25.1621962894623,0.0 55.3312089964282,25.161456061806,0.0 55.3323794366737,25.1599575447605,0.0 55.3329547273669,25.1592082826293,0.0 55.3335399197571,25.1584590181738,0.0 55.3341251149751,25.1577187786179,0.0 55.3347103030291,25.1569695093868,0.0 55.3352954938532,25.1562202377676,0.0 55.3358806676105,25.1554709637608,0.0 55.3364559158784,25.154721687576,0.0 55.3370410754009,25.1539723998065,0.0 55.3376262280929,25.1532321549981,0.0 55.3382510438374,25.1524287064045,0.0 55.3388659333081,25.1516252554599,0.0 55.3401155240168,25.1500183447487,0.0 55.3407303892021,25.14921487678,0.0 55.3413551641695,25.1484114236914,0.0 55.3426046895629,25.146804491299,0.0 55.3432393583559,25.1460100476623,0.0 55.3438641005855,25.145206574626,0.0 55.3444888354571,25.1444121261747,0.0 55.3451135613762,25.1436086477013,0.0 55.3457481865779,25.1428051566521,0.0 55.3463729069545,25.1420107090335,0.0 55.3470967666471,25.1410808308728,0.0 55.3470973814279,25.1410800454399,0.0 55.3471372033644,25.1410293895087,0.0 55.3471486858787,25.1410147822537,0.0 55.3478206263589,25.140159985399,0.0 55.3485543812664,25.1392300989241,0.0 55.3497640753076,25.1378036545413,0.0 55.3503689105364,25.1370814012359,0.0 55.3509794626727,25.1363730287219,0.0 55.3407429539068,25.1309553011319,0.0 55.3402739633765,25.1317744989753,0.0 55.33980496659,25.132593686218,0.0 55.3376780418712,25.1305636730599,0.0 55.3359314321121,25.1288626053817,0.0 55.3348473526545,25.1276553963896,0.0 55.3337030741212,25.1263933023172,0.0 55.3327192947914,25.1259451128007,0.0 55.3326977368118,25.1260530073186,0.0 55.3321101654797,25.1297568335808,0.0 55.3308697949754,25.129603335621,0.0 55.3294577352839,25.1294963677616,0.0 55.3279365545311,25.1292686330466,0.0 55.3263294738144,25.1290581840556,0.0 55.32611830856,25.1290295482851,0.0 55.3254092124917,25.1289333530241,0.0 55.3246294252189,25.1288282041575,0.0 55.3243955034636,25.128792767019,0.0 55.3253404628439,25.1268033972845,0.0 55.314808333216,25.1192178729745,0.0 55.3127600026715,25.1195251280431,0.0 55.3081777651666,25.1241651375835,0.0 55.3041091453946,25.1282846613075,0.0 55.3040587539035,25.128273484564,0.0 55.3035431786919,25.1281590778649,0.0 55.3031542867258,25.1280727792235,0.0</coordinates>
</LinearRing>
</outerBoundaryIs>
</Polygon>
</Placemark>
<Placemark id="kml_116">
<name>kml_116</name>
<snippet> </snippet>
<description><![CDATA[<center><table><tr><th colspan='2' align='center'><em>Attributes</em></th></tr><tr bgcolor="#E3E3F3">
<th>OBJECTID</th>
<td>148</td>
</tr><tr bgcolor="">
<th>CNAME_E</th>
<td>AL MERKADH</td>
</tr><tr bgcolor="#E3E3F3">
<th>CNAME_A</th>
<td>المركاض</td>
</tr><tr bgcolor="">
<th>LABEL_E</th>
<td>AL MERKADH</td>
</tr><tr bgcolor="#E3E3F3">
<th>LABEL_A</th>
<td>المركاض</td>
</tr><tr bgcolor="">
<th>C_PREFIX_E</th>
<td>Community:</td>
</tr><tr bgcolor="#E3E3F3">
<th>C_PREFIX_A</th>
<td>:???????</td>
</tr><tr bgcolor="">
<th>COMMUNITY_E</th>
<td>AL MERKADH - 347</td>
</tr><tr bgcolor="#E3E3F3">
<th>COMMUNITY_A</th>
<td>المركاض - 347</td>
</tr><tr bgcolor="">
<th>DGIS_ID</th>
<td>0000095</td>
</tr><tr bgcolor="#E3E3F3">
<th>COMM_NUM</th>
<td>347</td>
</tr><tr bgcolor="">
<th>NDGIS_ID</th>
<td>95</td>
</tr></table></center>]]></description>
<ExtendedData>
<SchemaData schemaUrl="doc.kml#kml_schema_ft_DMGISNET.COMMUNITY_20260815121545.2340549">
<SimpleData name="OBJECTID">148</SimpleData>
<SimpleData name="CNAME_E">AL MERKADH</SimpleData>
<SimpleData name="CNAME_A">المركاض</SimpleData>
<SimpleData name="LABEL_E">AL MERKADH</SimpleData>
<SimpleData name="LABEL_A">المركاض</SimpleData>
<SimpleData name="C_PREFIX_E">Community:</SimpleData>
<SimpleData name="C_PREFIX_A">:???????</SimpleData>
<SimpleData name="COMMUNITY_E">AL MERKADH - 347</SimpleData>
<SimpleData name="COMMUNITY_A">المركاض - 347</SimpleData>
<SimpleData name="DGIS_ID">0000095</SimpleData>
<SimpleData name="COMM_NUM">347</SimpleData>
<SimpleData name="NDGIS_ID">95</SimpleData>
</SchemaData>
</ExtendedData>
<Polygon>
<outerBoundaryIs>
<LinearRing>
<coordinates>55.2939069995619,25.1831794642287,0.0 55.2940855740078,25.183170484444,0.0 55.2943435135517,25.1831615253766,0.0 55.2947701067765,25.1831435826517,0.0 55.2952066233248,25.1831166139981,0.0 55.2956431396827,25.1830896440566,0.0 55.2960697407085,25.1830446158186,0.0 55.29650626205,25.1829995888195,0.0 55.2969328651302,25.1829455308366,0.0 55.2969725503023,25.1829365133372,0.0 55.2980737835778,25.1827833164754,0.0 55.2991750141099,25.1826301114123,0.0 55.3002762394628,25.1824859254043,0.0 55.301377464588,25.1823327039393,0.0 55.3024786770479,25.1821794742713,0.0 55.3035699860543,25.1820262344119,0.0 55.3046712029563,25.1818729884186,0.0 55.3057724171123,25.1817197342251,0.0 55.3067545724503,25.181566450496,0.0 55.307726824678,25.1814131585305,0.0 55.3087089868604,25.1812508345631,0.0 55.3096911447047,25.1810975313304,0.0 55.3106633813046,25.180935192796,0.0 55.311645524264,25.1807818765809,0.0 55.3126276762167,25.1806195265846,0.0 55.3135999136151,25.1804661960035,0.0 55.3145820604589,25.1803038239993,0.0 55.3155542829941,25.1801504895951,0.0 55.3165364247239,25.1799881226653,0.0 55.3171813374267,25.1792479500189,0.0 55.3178262522573,25.1785077835126,0.0 55.3184711603926,25.1777585778277,0.0 55.3190466274444,25.1770274351503,0.0 55.3196220787199,25.1762872538669,0.0 55.3201975230448,25.1755470612419,0.0 55.3207729594914,25.1748159116244,0.0 55.3213483899555,25.1740757233997,0.0 55.3219238134699,25.173335523834,0.0 55.3224992292345,25.1726043672793,0.0 55.3230746388904,25.1718641721154,0.0 55.3233912497258,25.1714618572796,0.0 55.3234174800976,25.1714285213263,0.0 55.3236500508026,25.1711330109379,0.0 55.324034554857,25.1706383591442,0.0 55.3204437110728,25.1704267435279,0.0 55.31390839281,25.1700528337412,0.0 55.3137336041935,25.1700257649931,0.0 55.3135528342979,25.1699977744577,0.0 55.3129640432013,25.1699065823471,0.0 55.3127894481025,25.1699110899109,0.0 55.3109607866398,25.1699581999639,0.0 55.3107871438989,25.1699614866281,0.0 55.3106134521047,25.1699617850539,0.0 55.3104397906282,25.169959086226,0.0 55.3102662189979,25.1699533991812,0.0 55.3100927967439,25.169944723929,0.0 55.3099195833963,25.1699330604795,0.0 55.3097466384833,25.1699184178701,0.0 55.3066110880612,25.1690721198501,0.0 55.3064696018581,25.1690014287449,0.0 55.3063297531265,25.168928047675,0.0 55.3061916410616,25.168852003745,0.0 55.3060553152545,25.1687733511324,0.0 55.3059208253038,25.168692107906,0.0 55.3057882505638,25.168608301167,0.0 55.3056576307026,25.1685219941191,0.0 55.3055290351582,25.1684331958075,0.0 55.3054025135167,25.1683419694378,0.0 55.3052781252915,25.1682483421082,0.0 55.3051559299911,25.1681523589718,0.0 55.3050359772041,25.1680540651797,0.0 55.3049182966818,25.1679534968522,0.0 55.3048238735439,25.1678693083873,0.0 55.304802997528,25.1678506991519,0.0 55.3046900797303,25.167745726248,0.0 55.30385599932,25.1668718576525,0.0 55.3034353419772,25.1656866362875,0.0 55.3027493146703,25.1655817707123,0.0 55.3024532834194,25.1656687863826,0.0 55.3015007515797,25.1647840558348,0.0 55.3013793208467,25.1644431596314,0.0 55.3007537515326,25.1638074486711,0.0 55.3005227180279,25.1638756077782,0.0 55.2973420002355,25.1609210430408,0.0 55.2973711075402,25.1605642647982,0.0 55.2968812038366,25.1601091789355,0.0 55.29643560196,25.1600790618779,0.0 55.2946156637587,25.1583883915677,0.0 55.2944683553798,25.158253024935,0.0 55.2944191733331,25.1582078304519,0.0 55.2942205106835,25.1580292364463,0.0 55.2940197154786,25.1578526276072,0.0 55.2938168075549,25.1576780039316,0.0 55.2936118265625,25.1575054376397,0.0 55.2934047725028,25.1573349196959,0.0 55.2931956850454,25.1571664591295,0.0 55.2929845939317,25.1570000920495,0.0 55.2927715090717,25.1568358365046,0.0 55.2925564701304,25.1566737105519,0.0 55.292579904038,25.1564454078619,0.0 55.2926392948727,25.1564185860662,0.0 55.2927294070091,25.1563802538533,0.0 55.2928520442677,25.1563343114483,0.0 55.2929769014426,25.1562936234282,0.0 55.2931037107195,25.1562582799876,0.0 55.2932000759412,25.1562358462406,0.0 55.2928647101357,25.1556428336219,0.0 55.2917067512707,25.1558293865762,0.0 55.2911852778323,25.1557199637491,0.0 55.291108308153,25.1556702736795,0.0 55.2910311400745,25.1556208543317,0.0 55.2887045427185,25.1541364912711,0.0 55.287980336646,25.1547592806747,0.0 55.2876076477599,25.1552308600071,0.0 55.2864163595049,25.1544565688315,0.0 55.2856853792517,25.1538952442249,0.0 55.2852051561436,25.1534658683451,0.0 55.2847329012624,25.1529850289122,0.0 55.2845100399237,25.1527342857727,0.0 55.2842963464812,25.1524770185937,0.0 55.2823723955474,25.1518964467993,0.0 55.2808445140578,25.1530243337442,0.0 55.280020862247,25.1540621779725,0.0 55.2793161513435,25.1552264429277,0.0 55.2792064922372,25.1554096839256,0.0 55.279456075085,25.1556889709018,0.0 55.279400511834,25.1557798464391,0.0 55.2793316388849,25.1558911639082,0.0 55.2792622005869,25.1560021922639,0.0 55.2791921671955,25.1561129044125,0.0 55.2791217769083,25.1562229483763,0.0 55.2791215486202,25.1562233184115,0.0 55.2791197918522,25.1562260349819,0.0 55.2790503448678,25.1563334162055,0.0 55.2789789430099,25.1564426292166,0.0 55.2789785658518,25.1564432068245,0.0 55.2789062016608,25.1565526722096,0.0 55.2788332721227,25.1566618304217,0.0 55.2787701191546,25.1567553118018,0.0 55.2787597772406,25.1567706724327,0.0 55.2779059233414,25.1580429498328,0.0 55.2778915037414,25.1583675746214,0.0 55.2770852818946,25.1593097641532,0.0 55.2769509401583,25.1594667516809,0.0 55.2767387138436,25.1597147675381,0.0 55.2765791639481,25.1599012191595,0.0 55.2765750851506,25.1599059478922,0.0 55.27645070797,25.1600469424264,0.0 55.276324337517,25.1601864556113,0.0 55.2762095097288,25.1603100851225,0.0 55.2762074952266,25.1603122057566,0.0 55.276093134941,25.1604325042885,0.0 55.2760094694558,25.1605182581814,0.0 55.2759015908806,25.1606276450872,0.0 55.2757924826659,25.1607359932972,0.0 55.275292318881,25.1612119871675,0.0 55.274863897486,25.1616195718479,0.0 55.2746342498273,25.1618380404653,0.0 55.2746295262864,25.1618425070963,0.0 55.2742241261657,25.1622216179434,0.0 55.2728994953436,25.1634602938542,0.0 55.272721276844,25.1636269548228,0.0 55.2720963819482,25.1642112951307,0.0 55.2674737436296,25.1683444072535,0.0 55.267424310272,25.1683902257368,0.0 55.2680552832248,25.169084864928,0.0 55.2692527903428,25.1704031799477,0.0 55.2710321826667,25.17225073802,0.0 55.2720668459021,25.1733364910328,0.0 55.2728201852107,25.1741270387072,0.0 55.2735043227494,25.1747953163391,0.0 55.273851363646,25.1751204377124,0.0 55.2742083263964,25.1754455622241,0.0 55.2745752154075,25.1757616625413,0.0 55.274932186247,25.1760777580251,0.0 55.2753089934612,25.1763848331526,0.0 55.2756858266502,25.1766828800588,0.0 55.2760626517524,25.176980925993,0.0 55.2764494030352,25.1772699565397,0.0 55.2768460763355,25.1775589717996,0.0 55.2772427556268,25.1778389858109,0.0 55.2776493610754,25.1781099481437,0.0 55.2780559683231,25.1783809093525,0.0 55.2784625814077,25.1786428512062,0.0 55.2788791205366,25.1788957683288,0.0 55.2792956613861,25.1791486842733,0.0 55.2797221282394,25.1793925753759,0.0 55.2801485967918,25.1796364652443,0.0 55.281021385277,25.1800881302346,0.0 55.2814578006312,25.1803049470823,0.0 55.2819041280399,25.1805217570564,0.0 55.2823504607895,25.1807295293968,0.0 55.2828067192281,25.1809282945734,0.0 55.2832475654808,25.1811203278176,0.0 55.2832629989899,25.1811270583469,0.0 55.2837192478658,25.1813077571583,0.0 55.2841556805497,25.181479411692,0.0 55.2845524395747,25.1816330063771,0.0 55.2847460111756,25.1817018126193,0.0 55.2849591137636,25.1817775850086,0.0 55.2853658122959,25.1819131172176,0.0 55.285782425858,25.1820396332647,0.0 55.2861891197235,25.1821661449778,0.0 55.2866057384422,25.1822836314501,0.0 55.2867724172844,25.1823270238449,0.0 55.2870223613737,25.1823920894937,0.0 55.2873794908151,25.1824753418561,0.0 55.2874489189317,25.1824915221884,0.0 55.2882920990061,25.1826813536079,0.0 55.2885401066752,25.1827286775446,0.0 55.2887186552607,25.182762728129,0.0 55.2891452054188,25.1828350741627,0.0 55.2895717692306,25.1828983826878,0.0 55.2899983334755,25.1829617170651,0.0 55.2908613933283,25.1830612671058,0.0 55.2911614839008,25.1830861778854,0.0 55.2912978887502,25.1830974917386,0.0 55.2914334513495,25.1831059435876,0.0 55.2917343775733,25.1831246968538,0.0 55.2921708963511,25.1831519097171,0.0 55.2925974778461,25.1831700822748,0.0 55.2930339632398,25.1831792290448,0.0 55.2932522272855,25.1831792702705,0.0 55.2934704814054,25.1831793292261,0.0 55.2936887553672,25.183179387865,0.0 55.2939069995619,25.1831794642287,0.0</coordinates>
</LinearRing>
</outerBoundaryIs>
</Polygon>
</Placemark>
<Placemark id="kml_176">
<name>kml_176</name>
<snippet> </snippet>
<description><![CDATA[<center><table><tr><th colspan='2' align='center'><em>Attributes</em></th></tr><tr bgcolor="#E3E3F3">
<th>OBJECTID</th>
<td>217</td>
</tr><tr bgcolor="">
<th>CNAME_E</th>
<td>AL YUFRAH 1</td>
</tr><tr bgcolor="#E3E3F3">
<th>CNAME_A</th>
<td>اليفره 1</td>
</tr><tr bgcolor="">
<th>LABEL_E</th>
<td>AL YUFRAH 1</td>
</tr><tr bgcolor="#E3E3F3">
<th>LABEL_A</th>
<td>اليفره 1</td>
</tr><tr bgcolor="">
<th>C_PREFIX_E</th>
<td>Community:</td>
</tr><tr bgcolor="#E3E3F3">
<th>C_PREFIX_A</th>
<td>:???????</td>
</tr><tr bgcolor="">
<th>COMMUNITY_E</th>
<td>AL YUFRAH 1 - 915</td>
</tr><tr bgcolor="#E3E3F3">
<th>COMMUNITY_A</th>
<td>اليفره 1 - 915</td>
</tr><tr bgcolor="">
<th>DGIS_ID</th>
<td>0000206</td>
</tr><tr bgcolor="#E3E3F3">
<th>COMM_NUM</th>
<td>915</td>
</tr><tr bgcolor="">
<th>NDGIS_ID</th>
<td>206</td>
</tr></table></center>]]></description>
<ExtendedData>
<SchemaData schemaUrl="doc.kml#kml_schema_ft_DMGISNET.COMMUNITY_20260815121545.2695833">
<SimpleData name="OBJECTID">217</SimpleData>
<SimpleData name="CNAME_E">AL YUFRAH 1</SimpleData>
<SimpleData name="CNAME_A">اليفره 1</SimpleData>
<SimpleData name="LABEL_E">AL YUFRAH 1</SimpleData>
<SimpleData name="LABEL_A">اليفره 1</SimpleData>
<SimpleData name="C_PREFIX_E">Community:</SimpleData>
<SimpleData name="C_PREFIX_A">:???????</SimpleData>
<SimpleData name="COMMUNITY_E">AL YUFRAH 1 - 915</SimpleData>
<SimpleData name="COMMUNITY_A">اليفره 1 - 915</SimpleData>
<SimpleData name="DGIS_ID">0000206</SimpleData>
<SimpleData name="COMM_NUM">915</SimpleData>
<SimpleData name="NDGIS_ID">206</SimpleData>
</SchemaData>
</ExtendedData>
<Polygon>
<outerBoundaryIs>
<LinearRing>
<coordinates>55.4657514633252,25.0047771847009,0.0 55.4516907900907,24.9953099350087,0.0 55.4515160759187,24.9951949104142,0.0 55.4513391261681,24.9950827490939,0.0 55.4511600201019,24.9949734780598,0.0 55.4509787973782,24.9948671424102,0.0 55.4507955174478,24.9947637691731,0.0 55.4506102595804,24.9946633943883,0.0 55.4504230436038,24.9945660451154,0.0 55.4502339586916,24.9944717573871,0.0 55.4500430642923,24.9943805582322,0.0 55.4498504099564,24.9942924837149,0.0 55.4496560650278,24.9942075518292,0.0 55.4494600889531,24.9941257896048,0.0 55.4492625411864,24.9940472330989,0.0 55.4490634910699,24.9939719003063,0.0 55.4488629980399,24.9938998092301,0.0 55.4486611215574,24.9938310049557,0.0 55.4484579309461,24.9937654874241,0.0 55.4482534757439,24.9937032836742,0.0 55.4480436639768,24.993643268421,0.0 55.4478326769124,24.9935867474086,0.0 55.4476206036906,24.9935337295911,0.0 55.4474074938467,24.9934842420083,0.0 55.4471934266312,24.9934383116777,0.0 55.4469785010717,24.9933959294923,0.0 55.4467627468996,24.9933571315356,0.0 55.4465462532368,24.9933219087088,0.0 55.4463290993405,24.9932902970586,0.0 55.4461113446244,24.9932622965371,0.0 55.4458930683121,24.9932379070819,0.0 55.4456743397386,24.9932171466933,0.0 55.4454552282302,24.9932000243446,0.0 55.4452358130104,24.9931865399748,0.0 55.4450161733104,24.9931767025504,0.0 55.4447963586376,24.9931705120336,0.0 55.4445764680256,24.9931679683494,0.0 55.444356560887,24.9931690714535,0.0 55.4388170660785,24.9932960197796,0.0 55.4385983490883,24.9932992530427,0.0 55.438379599354,24.9932989382085,0.0 55.4381608961446,24.9932950842484,0.0 55.4379422989032,24.9932876820934,0.0 55.4377238868914,24.9932767316882,0.0 55.4375057195751,24.993262251047,0.0 55.437287866295,24.9932442220673,0.0 55.4370703964373,24.9932226808119,0.0 55.4368533892478,24.9931976091725,0.0 55.436636904192,24.9931690251645,0.0 55.4364210106252,24.9931369287422,0.0 55.436205777925,24.9931013469425,0.0 55.4359912754389,24.9930622706928,0.0 55.4357775626461,24.9930197360652,0.0 55.4355647187989,24.9929737339811,0.0 55.4353528033682,24.9929242914857,0.0 55.4351418956207,24.9928714175561,0.0 55.4349320451212,24.9928151392451,0.0 55.4347233311356,24.9927554655306,0.0 55.4345158131257,24.9926924144317,0.0 55.434309560466,24.9926260129887,0.0 55.4341046326176,24.9925562792213,0.0 55.4339010989464,24.9924832311431,0.0 55.4336990288251,24.9924068957952,0.0 55.4334984619029,24.9923272912117,0.0 55.4332995170851,24.9922444534287,0.0 55.4331021844934,24.9921584005141,0.0 55.4329065830317,24.9920691685045,0.0 55.4327127424416,24.9919767754417,0.0 55.4325207419977,24.9918812483621,0.0 55.4323306510828,24.9917826323638,0.0 55.4321424994369,24.9916809454893,0.0 55.4319563465292,24.9915762238163,0.0 55.4317722914491,24.9914685033965,0.0 55.4315903639486,24.9913578203278,0.0 55.4314106135754,24.9912441926402,0.0 55.4312331196278,24.9911276834816,0.0 55.4310579316446,24.991008301855,0.0 55.4308850992001,24.9908861019006,0.0 55.4307146817653,24.9907611287251,0.0 55.4305467189863,24.9906334093932,0.0 55.430381290136,24.9905029799712,0.0 55.430218424975,24.9903698946129,0.0 55.4300581829643,24.9902341893981,0.0 55.430055695113,24.9902320515016,0.0 55.4258168099501,24.9865774407983,0.0 55.4254674094884,24.9862735033644,0.0 55.4254667355266,24.9862729169949,0.0 55.4251207029526,24.985967026708,0.0 55.425120306508,24.9859666839079,0.0 55.4251193550222,24.9859658359107,0.0 55.4249810321876,24.9858415765145,0.0 55.4247767200648,24.9856580198569,0.0 55.4247754216781,24.9856568470809,0.0 55.4247747179687,24.9856562065615,0.0 55.42465414567,24.9855461542443,0.0 55.4244354608392,24.9853465008845,0.0 55.4244340831616,24.9853452469067,0.0 55.4244328144888,24.985344065082,0.0 55.4243133317368,24.9852332264242,0.0 55.4240946654534,24.9850303497272,0.0 55.4239771642934,24.9849195818049,0.0 55.4237612422021,24.9847160168464,0.0 55.4237594680487,24.9847143478385,0.0 55.4235759451825,24.9845385314792,0.0 55.423428322447,24.9843971059587,0.0 55.4232425286847,24.9842162261304,0.0 55.4230958763763,24.9840734365348,0.0 55.422926029368,24.9839053928045,0.0 55.4226061383006,24.9835862735854,0.0 55.4224465889532,24.9834258603762,0.0 55.4222865921209,24.9832623959663,0.0 55.4221217884353,24.9830939420438,0.0 55.4219636440611,24.9829297178631,0.0 55.4218064813753,24.9827665040057,0.0 55.4216499713945,24.9826013215968,0.0 55.4214868108705,24.9824290383198,0.0 55.4213451777596,24.9822770991313,0.0 55.4211780909922,24.9820978666572,0.0 55.4210317783599,24.981938328773,0.0 55.4208683380507,24.9817601138996,0.0 55.4207160374095,24.9815913079797,0.0 55.4204173233119,24.9812575830648,0.0 55.4202524730147,24.9810717491132,0.0 55.4201076836394,24.9809059082116,0.0 55.4199522289619,24.9807277508386,0.0 55.4197895565018,24.9805383131195,0.0 55.4196594070077,24.9803867628187,0.0 55.4195008270985,24.9801990195694,0.0 55.4193647786464,24.9800379484074,0.0 55.4192139292241,24.9798563480997,0.0 55.4190732504881,24.979686983063,0.0 55.4189287339822,24.9795100821345,0.0 55.4187848126485,24.9793339119464,0.0 55.4186409887807,24.9791548617862,0.0 55.4184935371888,24.9789711553679,0.0 55.4183453008751,24.9787834771465,0.0 55.4182114285298,24.9786138455812,0.0 55.418065718649,24.9784261927126,0.0 55.4179383281936,24.9782621361971,0.0 55.4177966019602,24.9780764758679,0.0 55.4176553915169,24.9778913296736,0.0 55.4175279387878,24.9777214771727,0.0 55.4173822859068,24.9775271793355,0.0 55.4172583015261,24.9773590579159,0.0 55.4171127562518,24.9771615278977,0.0 55.4171058269471,24.9771521161133,0.0 55.416990208036,24.9769924394941,0.0 55.4168542276784,24.9768047979781,0.0 55.416723529354,24.9766212879696,0.0 55.4165834730677,24.9764244313986,0.0 55.4165760082943,24.9764139275602,0.0 55.4164550336109,24.9762408566876,0.0 55.4163241854334,24.9760536451196,0.0 55.4161986492314,24.9758710074185,0.0 55.4160667784812,24.9756789393859,0.0 55.4159445520142,24.9754978974885,0.0 55.4158143353219,24.9753047991678,0.0 55.4156892224745,24.9751161123534,0.0 55.4155558318201,24.9749147012194,0.0 55.4030521484357,24.9846500096586,0.0 55.4028975941504,24.98476946156,0.0 55.4027456460395,24.9848916654696,0.0 55.4025963634933,24.9850165581753,0.0 55.4024497960134,24.985144103552,0.0 55.4023060029918,24.9852742383875,0.0 55.4021650438314,24.9854069175248,0.0 55.4020269680361,24.9855421048391,0.0 55.4018918250906,24.9856797280954,0.0 55.4017596843101,24.9858197511598,0.0 55.4016305753763,24.9859621108341,0.0 55.4015045576863,24.9861067439063,0.0 55.4013816807529,24.9862536232791,0.0 55.40126199405,24.9864026496351,0.0 55.4011455371874,24.9865537958812,0.0 55.4010323596604,24.9867069988101,0.0 55.40092251097,24.9868622042417,0.0 55.4008160207987,24.9870193399496,0.0 55.4007129287441,24.9871783517583,0.0 55.4006132942095,24.9873391764552,0.0 55.4005171369794,24.9875017508458,0.0 55.4004244966537,24.987666020754,0.0 55.400335422728,24.987831913944,0.0 55.4002499250838,24.9879993672251,0.0 55.400168063128,24.9881683173843,0.0 55.4000898467383,24.9883386922032,0.0 55.4000153254326,24.9885104555552,0.0 55.3999445090752,24.9886835081389,0.0 55.3998774372702,24.9888577957768,0.0 55.3998141397077,24.9890332462408,0.0 55.399754626273,24.9892097963388,0.0 55.3996989266571,24.9893873738419,0.0 55.3996470705563,24.9895659155488,0.0 55.3995990579522,24.989745358271,0.0 55.3995549284371,24.989925620747,0.0 55.3995146918937,24.9901066307559,0.0 55.3994783582146,24.9902883341315,0.0 55.3994459471829,24.9904706496204,0.0 55.3994174785922,24.9906535140239,0.0 55.3993929425109,24.9908368461012,0.0 55.3993723587377,24.9910205916805,0.0 55.3993557470522,24.9912046604797,0.0 55.3993430975378,24.9913889983396,0.0 55.3993344299793,24.9915735240049,0.0 55.3993297245453,24.9917581652653,0.0 55.3993290109357,24.9919428589155,0.0 55.3993322693192,24.9921275327445,0.0 55.3993395095756,24.9923121055001,0.0 55.3993507217836,24.9924965139939,0.0 55.3993659059271,24.9926806950325,0.0 55.3993850520704,24.9928645583442,0.0 55.3994081602019,24.9930480497627,0.0 55.399435210485,24.9932310880474,0.0 55.3994662029031,24.993413610004,0.0 55.3995011176238,24.9935955434188,0.0 55.3995399546253,24.9937768160694,0.0 55.3995826841692,24.9939573557459,0.0 55.3996292864272,24.9941370992616,0.0 55.3996797613765,24.994315974393,0.0 55.3997340891831,24.9944939089251,0.0 55.3997922203012,24.9946708396836,0.0 55.399854164617,24.9948467034672,0.0 55.3999198824748,24.9950214100141,0.0 55.3999893441478,24.9951949141954,0.0 55.4000625297997,24.9953671437949,0.0 55.4001394294992,24.9955380265917,0.0 55.4002199937023,24.9957075084376,0.0 55.4003041827549,24.9958755080971,0.0 55.4003919768284,24.9960419714084,0.0 55.400483346178,24.9962068261586,0.0 55.400578241257,24.9963700181988,0.0 55.4006766422299,24.9965314843389,0.0 55.4007784995388,24.9966911523748,0.0 55.4008837735454,24.9968489771799,0.0 55.400992424591,24.997004877518,0.0 55.4011044229416,24.9971588082577,0.0 55.4012197190413,24.997310706222,0.0 55.4013382534277,24.9974605082382,0.0 55.4014600062603,24.9976081511152,0.0 55.4015849081894,24.9977536077948,0.0 55.4017129195465,24.9978967880126,0.0 55.4017129988372,24.9978968692234,0.0 55.4026388202728,24.9987868119055,0.0 55.4052351737848,24.9985284771816,0.0 55.4054262316651,24.9985038570648,0.0 55.4056177967324,24.9984827752272,0.0 55.4058097996731,24.9984652497556,0.0 55.4060021414302,24.9984512536143,0.0 55.4061947626122,24.9984408319685,0.0 55.4063875839843,24.9984339758284,0.0 55.4065805065057,24.9984306852421,0.0 55.4067734608528,24.9984309602433,0.0 55.4069663777021,24.9984348008662,0.0 55.4071591580181,24.9984422161875,0.0 55.407351752278,24.9984531881774,0.0 55.407544051535,24.9984677168909,0.0 55.4077359963712,24.9984858023589,0.0 55.4079274778287,24.9985074265823,0.0 55.4081184562952,24.9985325805553,0.0 55.4083088327402,24.9985612823846,0.0 55.408498527906,24.9985934869752,0.0 55.4086874526565,24.9986291943746,0.0 55.4088755574615,24.9986683775286,0.0 55.4090627631012,24.9987110545353,0.0 55.4092489704938,24.9987571622563,0.0 55.4094341202247,24.9988067097532,0.0 55.4096181132391,24.9988596790256,0.0 55.4098008999939,24.9989160249658,0.0 55.4099823913503,24.9989757476241,0.0 55.4101625179583,24.9990388109311,0.0 55.4103412005728,24.9991051968775,0.0 55.410518369837,24.9991748603673,0.0 55.4106939564218,24.9992478014416,0.0 55.410867871152,24.9993239659876,0.0 55.411040064492,24.9994033269545,0.0 55.4112104571881,24.9994858573072,0.0 55.4113789699804,24.9995715209835,0.0 55.4115455533313,24.9996602909331,0.0 55.4117101180622,24.9997521130447,0.0 55.4118726047286,24.9998469602738,0.0 55.4120329439734,24.9999447965537,0.0 55.4121910763392,25.0000455767856,0.0 55.4123469324619,25.0001492558757,0.0 55.4125004429822,25.000255797758,0.0 55.4126515484406,25.0003651573342,0.0 55.4128001992881,25.0004772985278,0.0 55.4129463162342,25.0005921491688,0.0 55.4130898497344,25.0007096822088,0.0 55.41323074032,25.000829843522,0.0 55.4133689186215,25.0009525880158,0.0 55.4135043350745,25.0010778615596,0.0 55.4136369401139,25.0012056100227,0.0 55.4137666742738,25.0013357883073,0.0 55.4138934780755,25.0014683332606,0.0 55.4242054512579,25.0124690637835,0.0 55.4451308940145,25.0308591600247,0.0 55.4459589982169,25.0298215356913,0.0 55.4465429145607,25.0290898700427,0.0 55.4471367321291,25.028358194467,0.0 55.4477206345816,25.0276265240969,0.0 55.4483045217076,25.0268858239568,0.0 55.4488884102866,25.026154148904,0.0 55.4494722919505,25.0254224715107,0.0 55.4500561666912,25.0246907827496,0.0 55.4506499423211,25.0239591018847,0.0 55.4512338031831,25.0232274174323,0.0 55.4518176484652,25.0224867032069,0.0 55.4524014954577,25.0217550140746,0.0 55.4529853355459,25.0210233316306,0.0 55.4535691687039,25.0202916287926,0.0 55.4541629023904,25.0195599245921,0.0 55.4547467216739,25.0188282260656,0.0 55.4553305251244,25.0180874977634,0.0 55.4559143305425,25.0173557945599,0.0 55.4564981290496,25.0166240890185,0.0 55.457081920646,25.0158923811395,0.0 55.4576657053321,25.0151606709231,0.0 55.4582593809931,25.0144199226062,0.0 55.4588431517583,25.0136882076763,0.0 55.4594269156049,25.0129564813824,0.0 55.460010672561,25.0122247708069,0.0 55.460604282861,25.0114479031719,0.0 55.4612078017682,25.0106800520423,0.0 55.4618013971353,25.0099031795269,0.0 55.4623949850462,25.009126304591,0.0 55.4629984815084,25.008358446045,0.0 55.4635920544887,25.0075815662302,0.0 55.464185629578,25.0068137114437,0.0 55.4647890940348,25.0060368180354,0.0 55.4657514633252,25.0047771847009,0.0</coordinates>
</LinearRing>
</outerBoundaryIs>
</Polygon>
</Placemark>
<Placemark id="kml_187">
<name>kml_187</name>
<snippet> </snippet>
<description><![CDATA[<center><table><tr><th colspan='2' align='center'><em>Attributes</em></th></tr><tr bgcolor="#E3E3F3">
<th>OBJECTID</th>
<td>169</td>
</tr><tr bgcolor="">
<th>CNAME_E</th>
<td>AL SAFOUH SECOND</td>
</tr><tr bgcolor="#E3E3F3">
<th>CNAME_A</th>
<td>الصفوح الثانية</td>
</tr><tr bgcolor="">
<th>LABEL_E</th>
<td>AL SAFOUH SECOND</td>
</tr><tr bgcolor="#E3E3F3">
<th>LABEL_A</th>
<td>الصفوح الثانية</td>
</tr><tr bgcolor="">
<th>C_PREFIX_E</th>
<td>Community:</td>
</tr><tr bgcolor="#E3E3F3">
<th>C_PREFIX_A</th>
<td>:???????</td>
</tr><tr bgcolor="">
<th>COMMUNITY_E</th>
<td>AL SAFOUH SECOND - 382</td>
</tr><tr bgcolor="#E3E3F3">
<th>COMMUNITY_A</th>
<td>الصفوح الثانية - 382</td>
</tr><tr bgcolor="">
<th>DGIS_ID</th>
<td>0000124</td>
</tr><tr bgcolor="#E3E3F3">
<th>COMM_NUM</th>
<td>382</td>
</tr><tr bgcolor="">
<th>NDGIS_ID</th>
<td>124</td>
</tr></table></center>]]></description>
<ExtendedData>
<SchemaData schemaUrl="doc.kml#kml_schema_ft_DMGISNET.COMMUNITY_20260815121545.2758617">
<SimpleData name="OBJECTID">169</SimpleData>
<SimpleData name="CNAME_E">AL SAFOUH SECOND</SimpleData>
<SimpleData name="CNAME_A">الصفوح الثانية</SimpleData>
<SimpleData name="LABEL_E">AL SAFOUH SECOND</SimpleData>
<SimpleData name="LABEL_A">الصفوح الثانية</SimpleData>
<SimpleData name="C_PREFIX_E">Community:</SimpleData>
<SimpleData name="C_PREFIX_A">:???????</SimpleData>
<SimpleData name="COMMUNITY_E">AL SAFOUH SECOND - 382</SimpleData>
<SimpleData name="COMMUNITY_A">الصفوح الثانية - 382</SimpleData>
<SimpleData name="DGIS_ID">0000124</SimpleData>
<SimpleData name="COMM_NUM">382</SimpleData>
<SimpleData name="NDGIS_ID">124</SimpleData>
</SchemaData>
</ExtendedData>
<Polygon>
<outerBoundaryIs>
<LinearRing>
<coordinates>55.1657318554583,25.1145735617154,0.0 55.166431682466,25.1140048516034,0.0 55.167195968098,25.1133918523748,0.0 55.1679602339669,25.112787876422,0.0 55.1687245044198,25.1121748691364,0.0 55.168595780552,25.1120483437076,0.0 55.1693799068416,25.1114173003684,0.0 55.1701639932741,25.110795280075,0.0 55.1709480837021,25.1101642282339,0.0 55.171732185915,25.1095331721745,0.0 55.17251625836,25.1089111391763,0.0 55.1748684630308,25.107017932815,0.0 55.1756525035902,25.106395882867,0.0 55.1764365477412,25.1057648013661,0.0 55.176903062066,25.1053410096584,0.0 55.176170217276,25.1047173660085,0.0 55.1754274587309,25.1040846639012,0.0 55.1739419411775,25.1028373031173,0.0 55.1731992054619,25.1022045898027,0.0 55.1724663895211,25.1015809018093,0.0 55.1717236472024,25.1009572174117,0.0 55.1709809223461,25.1003335202636,0.0 55.1702382169973,25.09970079206,0.0 55.1694955072678,25.0990770874446,0.0 55.168762718833,25.0984533900951,0.0 55.1679705162666,25.0977844861993,0.0 55.1671882359701,25.0971155891602,0.0 55.166396050589,25.0964466768237,0.0 55.1656137873686,25.0957777714493,0.0 55.1648216092458,25.0951088596896,0.0 55.1640789770772,25.0944760915122,0.0 55.1625937158157,25.0932105619954,0.0 55.1618411833667,25.0925777801823,0.0 55.1610985592551,25.0919540333747,0.0 55.1588707705186,25.090055688592,0.0 55.1581182765297,25.0894228878331,0.0 55.1573757032583,25.0887900950017,0.0 55.1566331246646,25.0881663257714,0.0 55.1558905765326,25.0875335254954,0.0 55.1551480162147,25.0869007214677,0.0 55.1543838277233,25.0875136624859,0.0 55.1532375668615,25.0884240374675,0.0 55.1518994368936,25.0894993060871,0.0 55.1513369674831,25.0899563655178,0.0 55.1509548662512,25.0902583122635,0.0 55.1505142865334,25.0906071563407,0.0 55.1498085390719,25.0911731839389,0.0 55.1490443061798,25.0917860866607,0.0 55.148786278346,25.0919753400361,0.0 55.1499676342543,25.0933225821873,0.0 55.1480363782305,25.0948205889871,0.0 55.1535793432236,25.1012756410081,0.0 55.1558904462668,25.0994397010905,0.0 55.1578889396515,25.1015035775365,0.0 55.154911718771,25.1038687052806,0.0 55.1551522877801,25.1063516891326,0.0 55.156800912617,25.1093705643615,0.0 55.1627226717614,25.1158032223915,0.0 55.1645606207595,25.1153881816729,0.0 55.1648653333452,25.1151779909283,0.0 55.1649409423124,25.1152603269405,0.0 55.1657776558724,25.1146234047685,0.0 55.1657318554583,25.1145735617154,0.0</coordinates>
</LinearRing>
</outerBoundaryIs>
</Polygon>
</Placemark>
<Placemark id="kml_218">
<name>kml_218</name>
<snippet> </snippet>
<description><![CDATA[<center><table><tr><th colspan='2' align='center'><em>Attributes</em></th></tr><tr bgcolor="#E3E3F3">
<th>OBJECTID</th>
<td>200</td>
</tr><tr bgcolor="">
<th>CNAME_E</th>
<td>WADI AL SAFA 2</td>
</tr><tr bgcolor="#E3E3F3">
<th>CNAME_A</th>
<td>وادي الصفا 2</td>
</tr><tr bgcolor="">
<th>LABEL_E</th>
<td>WADI AL SAFA 2</td>
</tr><tr bgcolor="#E3E3F3">
<th>LABEL_A</th>
<td>وادي الصفا 2</td>
</tr><tr bgcolor="">
<th>C_PREFIX_E</th>
<td>Community:</td>
</tr><tr bgcolor="#E3E3F3">
<th>C_PREFIX_A</th>
<td>:???????</td>
</tr><tr bgcolor="">
<th>COMMUNITY_E</th>
<td>WADI AL SAFA 2 - 643</td>
</tr><tr bgcolor="#E3E3F3">
<th>COMMUNITY_A</th>
<td>وادي الصفا 2 - 643</td>
</tr><tr bgcolor="">
<th>DGIS_ID</th>
<td>0000236</td>
</tr><tr bgcolor="#E3E3F3">
<th>COMM_NUM</th>
<td>643</td>
</tr><tr bgcolor="">
<th>NDGIS_ID</th>
<td>236</td>
</tr></table></center>]]></description>
<ExtendedData>
<SchemaData schemaUrl="doc.kml#kml_schema_ft_DMGISNET.COMMUNITY_20260815121545.2986885">
<SimpleData name="OBJECTID">200</SimpleData>
<SimpleData name="CNAME_E">WADI AL SAFA 2</SimpleData>
<SimpleData name="CNAME_A">وادي الصفا 2</SimpleData>
<SimpleData name="LABEL_E">WADI AL SAFA 2</SimpleData>
<SimpleData name="LABEL_A">وادي الصفا 2</SimpleData>
<SimpleData name="C_PREFIX_E">Community:</SimpleData>
<SimpleData name="C_PREFIX_A">:???????</SimpleData>
<SimpleData name="COMMUNITY_E">WADI AL SAFA 2 - 643</SimpleData>
<SimpleData name="COMMUNITY_A">وادي الصفا 2 - 643</SimpleData>
<SimpleData name="DGIS_ID">0000236</SimpleData>
<SimpleData name="COMM_NUM">643</SimpleData>
<SimpleData name="NDGIS_ID">236</SimpleData>
</SchemaData>
</ExtendedData>
<Polygon>
<outerBoundaryIs>
<LinearRing>
<coordinates>55.3655569270755,25.1191776936587,0.0 55.3667860520797,25.1177330478186,0.0 55.368015145647,25.1162793642,0.0 55.3686296828266,25.1155570321434,0.0 55.3692442127848,25.1148346974772,0.0 55.369858735522,25.1141123602016,0.0 55.3704633360393,25.1133900318274,0.0 55.3710778443911,25.1126676803475,0.0 55.3716923427085,25.1119363079446,0.0 55.3723068365783,25.1112139602742,0.0 55.3729213232287,25.1104916099957,0.0 55.3735358026601,25.1097692571094,0.0 55.3741502748728,25.1090469016154,0.0 55.374764736825,25.1083155161683,0.0 55.3753791945563,25.107593155459,0.0 55.37599364507,25.1068707921429,0.0 55.3766080883663,25.1061484262202,0.0 55.3772225244457,25.1054260576911,0.0 55.3778270357413,25.1046946621807,0.0 55.378441457401,25.1039722884798,0.0 55.3789238812899,25.1034022171576,0.0 55.3776668076953,25.1027613131414,0.0 55.3760924483411,25.1019257250404,0.0 55.3600626655138,25.0928609271923,0.0 55.3373847778318,25.0795479013607,0.0 55.3351007382698,25.0827756592245,0.0 55.3332088299345,25.0843635133281,0.0 55.3337806124072,25.0871355940968,0.0 55.3338560979798,25.0892177663997,0.0 55.3331092434239,25.0919397809449,0.0 55.3309003191174,25.0978969370743,0.0 55.3333795319471,25.1001588612522,0.0 55.3423420214499,25.1077759678404,0.0 55.345574401686,25.110151752124,0.0 55.3497084504266,25.1122180193252,0.0 55.3564233827909,25.1152299105719,0.0 55.3618750546621,25.1179799611755,0.0 55.364942353739,25.1199000126626,0.0 55.3649438016522,25.1199009692512,0.0 55.3655569270755,25.1191776936587,0.0</coordinates>
</LinearRing>
</outerBoundaryIs>
</Polygon>
</Placemark>
</Document>
</kml>
