{"type":"FeatureCollection","features":[{"type":"Feature","properties":{"status":"construction","bHeight":158.0,"name":"Imtiaz Symphony Tower","levels":"34"},"geometry":{"type":"Polygon","coordinates":[[[55.30799425059278,25.167751198027563],[55.30773318102655,25.167945525837876],[55.307729049032694,25.16794927377719],[55.307725799881155,25.1679536833124],[55.30772355843504,25.1679585849876],[55.30772241083198,25.16796379043423],[55.30772240117383,25.167969099609913],[55.307723529831904,25.16797430848601],[55.30772575343264,25.167979216888334],[55.30772898652443,25.167983636189682],[55.307963872612426,25.16824498477714],[55.30796799096532,25.168248745140353],[55.30797283629823,25.16825170206119],[55.307978222407684,25.168253741906803],[55.307983942308425,25.168254786286987],[55.307989776187746,25.168254795066776],[55.30799549985279,25.16825376790877],[55.30800089334617,25.16825174428608],[55.30800574939886,25.168248801965436],[55.30826681923943,25.168054473692838],[55.30827095122152,25.168050725737892],[55.30827420035698,25.168046316189873],[55.30827644178342,25.168041414505332],[55.30827758936415,25.16803620905327],[55.30827759899842,25.168030899876342],[55.30827647031616,25.168025691003248],[55.308274246692115,25.16802078260805],[55.30827101357901,25.168016363317562],[55.30803612721289,25.167755015198765],[55.30803200887343,25.167751254837963],[55.30802716355801,25.167748297919832],[55.30802177746931,25.167746258076985],[55.30801605759162,25.167745213699423],[55.308010223736495,25.167745204921925],[55.30800450009557,25.167746232081818],[55.30799910662501,25.16774825570593],[55.30799425059278,25.167751198027563]]]}}]}